zip;district;region
10000;Hlavní město Praha;Hlavní město Praha
10100;Hlavní město Praha;Hlavní město Praha
10200;Hlavní město Praha;Hlavní město Praha
10300;Hlavní město Praha;Hlavní město Praha
10400;Hlavní město Praha;Hlavní město Praha
10600;Hlavní město Praha;Hlavní město Praha
10700;Hlavní město Praha;Hlavní město Praha
10800;Hlavní město Praha;Hlavní město Praha
10900;Hlavní město Praha;Hlavní město Praha
11000;Hlavní město Praha;Hlavní město Praha
11101;Hlavní město Praha;Hlavní město Praha
11800;Hlavní město Praha;Hlavní město Praha
11900;Hlavní město Praha;Hlavní město Praha
12000;Hlavní město Praha;Hlavní město Praha
12800;Hlavní město Praha;Hlavní město Praha
13000;Hlavní město Praha;Hlavní město Praha
14000;Hlavní město Praha;Hlavní město Praha
14100;Hlavní město Praha;Hlavní město Praha
14200;Hlavní město Praha;Hlavní město Praha
14300;Hlavní město Praha;Hlavní město Praha
14700;Hlavní město Praha;Hlavní město Praha
14800;Hlavní město Praha;Hlavní město Praha
14900;Praha-západ;Středočeský
15000;Hlavní město Praha;Hlavní město Praha
15200;Hlavní město Praha;Hlavní město Praha
15300;Hlavní město Praha;Hlavní město Praha
15400;Hlavní město Praha;Hlavní město Praha
15500;Hlavní město Praha;Hlavní město Praha
15521;Hlavní město Praha;Hlavní město Praha
15531;Hlavní město Praha;Hlavní město Praha
15600;Hlavní město Praha;Hlavní město Praha
15800;Hlavní město Praha;Hlavní město Praha
15900;Hlavní město Praha;Hlavní město Praha
16000;Hlavní město Praha;Hlavní město Praha
16100;Hlavní město Praha;Hlavní město Praha
16200;Hlavní město Praha;Hlavní město Praha
16300;Hlavní město Praha;Hlavní město Praha
16400;Hlavní město Praha;Hlavní město Praha
16500;Hlavní město Praha;Hlavní město Praha
16900;Hlavní město Praha;Hlavní město Praha
17000;Hlavní město Praha;Hlavní město Praha
17100;Hlavní město Praha;Hlavní město Praha
18000;Hlavní město Praha;Hlavní město Praha
18100;Hlavní město Praha;Hlavní město Praha
18200;Hlavní město Praha;Hlavní město Praha
18400;Hlavní město Praha;Hlavní město Praha
18600;Hlavní město Praha;Hlavní město Praha
19000;Hlavní město Praha;Hlavní město Praha
19011;Hlavní město Praha;Hlavní město Praha
19012;Hlavní město Praha;Hlavní město Praha
19014;Hlavní město Praha;Hlavní město Praha
19015;Hlavní město Praha;Hlavní město Praha
19016;Hlavní město Praha;Hlavní město Praha
19017;Hlavní město Praha;Hlavní město Praha
19300;Hlavní město Praha;Hlavní město Praha
19600;Hlavní město Praha;Hlavní město Praha
19700;Hlavní město Praha;Hlavní město Praha
19800;Hlavní město Praha;Hlavní město Praha
19900;Hlavní město Praha;Hlavní město Praha
25001;Praha-východ;Středočeský
25063;Praha-východ;Středočeský
25064;Praha-východ;Středočeský
25065;Praha-východ;Středočeský
25066;Praha-východ;Středočeský
25067;Praha-východ;Středočeský
25068;Praha-východ;Středočeský
25069;Praha-východ;Středočeský
25070;Praha-východ;Středočeský
25072;Mělník;Středočeský
25073;Praha-východ;Středočeský
25074;Praha-východ;Středočeský
25075;Praha-východ;Středočeský
25081;Praha-východ;Středočeský
25082;Kolín;Středočeský
25083;Praha-východ;Středočeský
25084;Praha-východ;Středočeský
25087;Praha-východ;Středočeský
25088;Praha-východ;Středočeský
25089;Praha-východ;Středočeský
25090;Praha-východ;Středočeský
25091;Praha-východ;Středočeský
25092;Praha-východ;Středočeský
25101;Praha-východ;Středočeský
25162;Praha-východ;Středočeský
25163;Praha-východ;Středočeský
25164;Praha-východ;Středočeský
25165;Praha-východ;Středočeský
25166;Praha-východ;Středočeský
25167;Praha-východ;Středočeský
25168;Benešov;Středočeský
25169;Praha-východ;Středočeský
25202;Praha-západ;Středočeský
25203;Praha-západ;Středočeský
25204;Praha-západ;Středočeský
25205;Praha-západ;Středočeský
25206;Praha-západ;Středočeský
25207;Praha-západ;Středočeský
25208;Benešov;Středočeský
25209;Praha-západ;Středočeský
25210;Praha-západ;Středočeský
25216;Praha-západ;Středočeský
25217;Praha-západ;Středočeský
25218;Praha-západ;Středočeský
25219;Praha-západ;Středočeský
25225;Praha-západ;Středočeský
25226;Praha-západ;Středočeský
25228;Praha-západ;Středočeský
25229;Praha-západ;Středočeský
25230;Beroun;Středočeský
25231;Praha-západ;Středočeský
25241;Praha-západ;Středočeský
25242;Praha-západ;Středočeský
25243;Praha-západ;Středočeský
25244;Praha-západ;Středočeský
25245;Praha-západ;Středočeský
25246;Praha-západ;Středočeský
25250;Praha-západ;Středočeský
25261;Praha-západ;Středočeský
25262;Praha-západ;Středočeský
25263;Praha-západ;Středočeský
25264;Praha-západ;Středočeský
25265;Praha-západ;Středočeský
25266;Praha-východ;Středočeský
25267;Praha-západ;Středočeský
25268;Praha-západ;Středočeský
25281;Praha-západ;Středočeský
25282;Praha-západ;Středočeský
25301;Praha-západ;Středočeský
25303;Praha-západ;Středočeský
25401;Praha-západ;Středočeský
25601;Benešov;Středočeský
25701;Benešov;Středočeský
25703;Benešov;Středočeský
25705;Benešov;Středočeský
25706;Benešov;Středočeský
25708;Benešov;Středočeský
25709;Benešov;Středočeský
25721;Benešov;Středočeský
25722;Benešov;Středočeský
25723;Benešov;Středočeský
25724;Benešov;Středočeský
25726;Benešov;Středočeský
25728;Benešov;Středočeský
25741;Benešov;Středočeský
25742;Benešov;Středočeský
25744;Benešov;Středočeský
25751;Benešov;Středočeský
25753;Benešov;Středočeský
25755;Benešov;Středočeský
25756;Benešov;Středočeský
25763;Benešov;Středočeský
25764;Benešov;Středočeský
25765;Benešov;Středočeský
25766;Benešov;Středočeský
25768;Benešov;Středočeský
25771;Benešov;Středočeský
25786;Benešov;Středočeský
25787;Benešov;Středočeský
25788;Benešov;Středočeský
25789;Benešov;Středočeský
25791;Benešov;Středočeský
25801;Benešov;Středočeský
25901;Benešov;Středočeský
26101;Příbram;Středočeský
26202;Příbram;Středočeský
26203;Praha-západ;Středočeský
26204;Příbram;Středočeský
26205;Příbram;Středočeský
26206;Příbram;Středočeský
26211;Příbram;Středočeský
26212;Příbram;Středočeský
26213;Příbram;Středočeský
26214;Příbram;Středočeský
26215;Příbram;Středočeský
26221;Příbram;Středočeský
26222;Příbram;Středočeský
26223;Příbram;Středočeský
26225;Příbram;Středočeský
26231;Příbram;Středočeský
26232;Příbram;Středočeský
26241;Příbram;Středočeský
26242;Příbram;Středočeský
26243;Příbram;Středočeský
26244;Příbram;Středočeský
26251;Příbram;Středočeský
26252;Příbram;Středočeský
26255;Příbram;Středočeský
26256;Příbram;Středočeský
26261;Příbram;Středočeský
26262;Příbram;Středočeský
26263;Příbram;Středočeský
26272;Příbram;Středočeský
26281;Příbram;Středočeský
26284;Příbram;Středočeský
26285;Příbram;Středočeský
26291;Příbram;Středočeský
26293;Příbram;Středočeský
26301;Příbram;Středočeský
26401;Příbram;Středočeský
26601;Beroun;Středočeský
26701;Beroun;Středočeský
26703;Beroun;Středočeský
26705;Beroun;Středočeský
26706;Beroun;Středočeský
26707;Beroun;Středočeský
26711;Beroun;Středočeský
26712;Beroun;Středočeský
26716;Beroun;Středočeský
26717;Beroun;Středočeský
26718;Beroun;Středočeský
26721;Beroun;Středočeský
26722;Beroun;Středočeský
26723;Beroun;Středočeský
26724;Beroun;Středočeský
26725;Beroun;Středočeský
26726;Beroun;Středočeský
26727;Beroun;Středočeský
26728;Beroun;Středočeský
26729;Beroun;Středočeský
26741;Beroun;Středočeský
26742;Beroun;Středočeský
26743;Beroun;Středočeský
26751;Beroun;Středočeský
26753;Beroun;Středočeský
26754;Beroun;Středočeský
26761;Beroun;Středočeský
26762;Beroun;Středočeský
26763;Beroun;Středočeský
26764;Beroun;Středočeský
26801;Beroun;Středočeský
26901;Rakovník;Středočeský
27001;Rakovník;Středočeský
27002;Rakovník;Středočeský
27004;Rakovník;Středočeský
27006;Rakovník;Středočeský
27007;Rakovník;Středočeský
27008;Rakovník;Středočeský
27009;Rakovník;Středočeský
27021;Rakovník;Středočeský
27023;Rakovník;Středočeský
27024;Rakovník;Středočeský
27031;Rakovník;Středočeský
27032;Rakovník;Středočeský
27033;Rakovník;Středočeský
27034;Rakovník;Středočeský
27035;Rakovník;Středočeský
27036;Rakovník;Středočeský
27041;Rakovník;Středočeský
27042;Rakovník;Středočeský
27051;Rakovník;Středočeský
27052;Rakovník;Středočeský
27053;Rakovník;Středočeský
27054;Rakovník;Středočeský
27055;Rakovník;Středočeský
27061;Kladno;Středočeský
27062;Rakovník;Středočeský
27064;Rakovník;Středočeský
27065;Rakovník;Středočeský
27101;Kladno;Středočeský
27201;Kladno;Středočeský
27203;Kladno;Středočeský
27204;Kladno;Středočeský
27301;Kladno;Středočeský
27302;Kladno;Středočeský
27303;Kladno;Středočeský
27304;Kladno;Středočeský
27305;Kladno;Středočeský
27306;Kladno;Středočeský
27307;Kladno;Středočeský
27308;Kladno;Středočeský
27309;Kladno;Středočeský
27321;Kladno;Středočeský
27322;Kladno;Středočeský
27323;Kladno;Středočeský
27324;Kladno;Středočeský
27325;Kladno;Středočeský
27326;Kladno;Středočeský
27327;Kladno;Středočeský
27328;Kladno;Středočeský
27329;Kladno;Středočeský
27341;Kladno;Středočeský
27342;Kladno;Středočeský
27343;Kladno;Středočeský
27345;Kladno;Středočeský
27351;Kladno;Středočeský
27353;Kladno;Středočeský
27354;Kladno;Středočeský
27361;Kladno;Středočeský
27362;Kladno;Středočeský
27363;Kladno;Středočeský
27364;Kladno;Středočeský
27371;Kladno;Středočeský
27372;Kladno;Středočeský
27373;Kladno;Středočeský
27374;Kladno;Středočeský
27375;Kladno;Středočeský
27376;Kladno;Středočeský
27377;Kladno;Středočeský
27378;Kladno;Středočeský
27379;Kladno;Středočeský
27401;Kladno;Středočeský
27601;Mělník;Středočeský
27701;Mělník;Středočeský
27703;Mělník;Středočeský
27704;Mělník;Středočeský
27705;Mělník;Středočeský
27706;Mělník;Středočeský
27707;Mělník;Středočeský
27708;Mělník;Středočeský
27711;Mělník;Středočeský
27713;Mělník;Středočeský
27714;Praha-východ;Středočeský
27715;Mělník;Středočeský
27716;Mělník;Středočeský
27721;Mělník;Středočeský
27723;Mělník;Středočeský
27724;Mělník;Středočeský
27731;Mělník;Středočeský
27732;Mělník;Středočeský
27733;Mělník;Středočeský
27734;Mělník;Středočeský
27735;Mělník;Středočeský
27736;Mělník;Středočeský
27737;Mělník;Středočeský
27738;Mělník;Středočeský
27741;Mělník;Středočeský
27742;Mělník;Středočeský
27743;Mělník;Středočeský
27744;Mělník;Středočeský
27745;Mělník;Středočeský
27746;Mělník;Středočeský
27751;Mělník;Středočeský
27752;Mělník;Středočeský
27801;Mělník;Středočeský
28002;Kolín;Středočeský
28101;Kolín;Středočeský
28102;Kolín;Středočeský
28103;Kolín;Středočeský
28104;Kolín;Středočeský
28106;Kolín;Středočeský
28107;Kolín;Středočeský
28121;Kolín;Středočeský
28123;Kolín;Středočeský
28125;Kolín;Středočeský
28126;Kolín;Středočeský
28127;Kolín;Středočeský
28128;Kolín;Středočeský
28129;Kolín;Středočeský
28130;Kolín;Středočeský
28141;Kolín;Středočeský
28143;Kolín;Středočeský
28144;Kolín;Středočeský
28146;Kolín;Středočeský
28151;Kolín;Středočeský
28161;Kolín;Středočeský
28162;Praha-východ;Středočeský
28163;Kolín;Středočeský
28166;Praha-východ;Středočeský
28167;Praha-východ;Středočeský
28171;Kolín;Středočeský
28201;Kolín;Středočeský
28401;Kutná Hora;Středočeský
28403;Kutná Hora;Středočeský
28404;Kutná Hora;Středočeský
28501;Kutná Hora;Středočeský
28502;Kutná Hora;Středočeský
28504;Kutná Hora;Středočeský
28506;Kutná Hora;Středočeský
28507;Kutná Hora;Středočeský
28509;Kutná Hora;Středočeský
28510;Kutná Hora;Středočeský
28511;Kutná Hora;Středočeský
28521;Kutná Hora;Středočeský
28522;Kutná Hora;Středočeský
28523;Kutná Hora;Středočeský
28525;Kutná Hora;Středočeský
28531;Kutná Hora;Středočeský
28532;Kutná Hora;Středočeský
28533;Kutná Hora;Středočeský
28541;Kutná Hora;Středočeský
28542;Kutná Hora;Středočeský
28543;Kutná Hora;Středočeský
28545;Kutná Hora;Středočeský
28546;Kutná Hora;Středočeský
28547;Kutná Hora;Středočeský
28561;Kutná Hora;Středočeský
28562;Kutná Hora;Středočeský
28563;Kutná Hora;Středočeský
28564;Kutná Hora;Středočeský
28565;Kutná Hora;Středočeský
28571;Kutná Hora;Středočeský
28572;Kutná Hora;Středočeský
28573;Kutná Hora;Středočeský
28574;Kutná Hora;Středočeský
28575;Kutná Hora;Středočeský
28576;Kutná Hora;Středočeský
28601;Kutná Hora;Středočeský
28802;Nymburk;Středočeský
28901;Nymburk;Středočeský
28902;Nymburk;Středočeský
28903;Nymburk;Středočeský
28904;Nymburk;Středočeský
28905;Kolín;Středočeský
28906;Nymburk;Středočeský
28907;Nymburk;Středočeský
28908;Nymburk;Středočeský
28911;Kolín;Středočeský
28912;Nymburk;Středočeský
28913;Nymburk;Středočeský
28914;Nymburk;Středočeský
28915;Nymburk;Středočeský
28916;Nymburk;Středočeský
28917;Nymburk;Středočeský
28921;Nymburk;Středočeský
28922;Nymburk;Středočeský
28923;Nymburk;Středočeský
28924;Nymburk;Středočeský
28925;Nymburk;Středočeský
28926;Nymburk;Středočeský
28931;Nymburk;Středočeský
28932;Nymburk;Středočeský
28933;Nymburk;Středočeský
28934;Nymburk;Středočeský
28935;Nymburk;Středočeský
28936;Nymburk;Středočeský
28937;Nymburk;Středočeský
28941;Kolín;Středočeský
29001;Nymburk;Středočeský
29301;Mladá Boleslav;Středočeský
29306;Mladá Boleslav;Středočeský
29307;Mladá Boleslav;Středočeský
29401;Mladá Boleslav;Středočeský
29402;Mladá Boleslav;Středočeský
29403;Mladá Boleslav;Středočeský
29404;Mladá Boleslav;Středočeský
29405;Mladá Boleslav;Středočeský
29406;Mladá Boleslav;Středočeský
29411;Mladá Boleslav;Středočeský
29412;Mladá Boleslav;Středočeský
29413;Mladá Boleslav;Středočeský
29414;Mladá Boleslav;Středočeský
29415;Mladá Boleslav;Středočeský
29421;Mladá Boleslav;Středočeský
29423;Mladá Boleslav;Středočeský
29424;Mladá Boleslav;Středočeský
29425;Mladá Boleslav;Středočeský
29426;Mladá Boleslav;Středočeský
29427;Mladá Boleslav;Středočeský
29428;Mladá Boleslav;Středočeský
29429;Mladá Boleslav;Středočeský
29430;Mladá Boleslav;Středočeský
29431;Mladá Boleslav;Středočeský
29441;Mladá Boleslav;Středočeský
29442;Mladá Boleslav;Středočeský
29443;Mladá Boleslav;Středočeský
29445;Mladá Boleslav;Středočeský
29446;Mladá Boleslav;Středočeský
29447;Mladá Boleslav;Středočeský
29448;Mladá Boleslav;Středočeský
29471;Mladá Boleslav;Středočeský
29473;Mladá Boleslav;Středočeský
29474;Mladá Boleslav;Středočeský
29475;Mladá Boleslav;Středočeský
29476;Praha-východ;Středočeský
29477;Mladá Boleslav;Středočeský
29478;Mladá Boleslav;Středočeský
29479;Mladá Boleslav;Středočeský
29501;Mladá Boleslav;Středočeský
30100;Plzeň-město;Plzeňský
31200;Plzeň-město;Plzeňský
31600;Plzeň-město;Plzeňský
31800;Plzeň-město;Plzeňský
32100;Plzeň-město;Plzeňský
32200;Plzeň-město;Plzeňský
32300;Plzeň-město;Plzeňský
32600;Plzeň-město;Plzeňský
33001;Plzeň-město;Plzeňský
33002;Plzeň-město;Plzeňský
33003;Plzeň-město;Plzeňský
33005;Plzeň-sever;Plzeňský
33007;Plzeň-sever;Plzeňský
33008;Plzeň-sever;Plzeňský
33011;Plzeň-sever;Plzeňský
33012;Plzeň-sever;Plzeňský
33013;Plzeň-sever;Plzeňský
33014;Plzeň-sever;Plzeňský
33016;Plzeň-sever;Plzeňský
33017;Plzeň-sever;Plzeňský
33021;Plzeň-sever;Plzeňský
33022;Plzeň-sever;Plzeňský
33023;Tachov;Plzeňský
33024;Plzeň-sever;Plzeňský
33025;Plzeň-sever;Plzeňský
33026;Plzeň-sever;Plzeňský
33027;Plzeň-sever;Plzeňský
33032;Plzeň-sever;Plzeňský
33033;Plzeň-sever;Plzeňský
33035;Plzeň-sever;Plzeňský
33036;Plzeň-sever;Plzeňský
33038;Plzeň-sever;Plzeňský
33040;Plzeň-sever;Plzeňský
33041;Plzeň-sever;Plzeňský
33101;Plzeň-sever;Plzeňský
33141;Plzeň-sever;Plzeňský
33144;Plzeň-sever;Plzeňský
33151;Plzeň-sever;Plzeňský
33152;Plzeň-sever;Plzeňský
33162;Plzeň-sever;Plzeňský
33165;Plzeň-sever;Plzeňský
33201;Plzeň-město;Plzeňský
33202;Plzeň-město;Plzeňský
33203;Plzeň-město;Plzeňský
33204;Plzeň-jih;Plzeňský
33205;Plzeň-město;Plzeňský
33207;Plzeň-jih;Plzeňský
33209;Plzeň-město;Plzeňský
33211;Plzeň-jih;Plzeňský
33214;Plzeň-jih;Plzeňský
33301;Plzeň-jih;Plzeňský
33401;Plzeň-jih;Plzeňský
33441;Plzeň-jih;Plzeňský
33442;Plzeň-jih;Plzeňský
33443;Plzeň-jih;Plzeňský
33444;Plzeň-jih;Plzeňský
33452;Plzeň-jih;Plzeňský
33453;Plzeň-jih;Plzeňský
33454;Plzeň-jih;Plzeňský
33455;Plzeň-jih;Plzeňský
33501;Plzeň-jih;Plzeňský
33503;Plzeň-jih;Plzeňský
33541;Plzeň-jih;Plzeňský
33543;Plzeň-jih;Plzeňský
33544;Plzeň-jih;Plzeňský
33546;Plzeň-jih;Plzeňský
33547;Plzeň-jih;Plzeňský
33551;Plzeň-jih;Plzeňský
33554;Plzeň-jih;Plzeňský
33555;Plzeň-jih;Plzeňský
33561;Plzeň-jih;Plzeňský
33563;Plzeň-jih;Plzeňský
33564;Plzeň-jih;Plzeňský
33601;Plzeň-jih;Plzeňský
33701;Rokycany;Plzeňský
33801;Rokycany;Plzeňský
33805;Rokycany;Plzeňský
33806;Rokycany;Plzeňský
33808;Rokycany;Plzeňský
33821;Rokycany;Plzeňský
33822;Rokycany;Plzeňský
33824;Rokycany;Plzeňský
33828;Rokycany;Plzeňský
33841;Rokycany;Plzeňský
33842;Rokycany;Plzeňský
33843;Rokycany;Plzeňský
33844;Rokycany;Plzeňský
33845;Rokycany;Plzeňský
33901;Klatovy;Plzeňský
34004;Klatovy;Plzeňský
34012;Klatovy;Plzeňský
34021;Klatovy;Plzeňský
34022;Klatovy;Plzeňský
34034;Klatovy;Plzeňský
34101;Klatovy;Plzeňský
34142;Klatovy;Plzeňský
34192;Klatovy;Plzeňský
34201;Klatovy;Plzeňský
34401;Domažlice;Plzeňský
34501;Domažlice;Plzeňský
34502;Domažlice;Plzeňský
34506;Klatovy;Plzeňský
34507;Domažlice;Plzeňský
34509;Domažlice;Plzeňský
34521;Domažlice;Plzeňský
34522;Domažlice;Plzeňský
34525;Domažlice;Plzeňský
34526;Domažlice;Plzeňský
34532;Domažlice;Plzeňský
34533;Domažlice;Plzeňský
34534;Domažlice;Plzeňský
34535;Domažlice;Plzeňský
34543;Domažlice;Plzeňský
34545;Domažlice;Plzeňský
34561;Domažlice;Plzeňský
34562;Domažlice;Plzeňský
34601;Domažlice;Plzeňský
34701;Tachov;Plzeňský
34801;Tachov;Plzeňský
34802;Tachov;Plzeňský
34806;Tachov;Plzeňský
34813;Tachov;Plzeňský
34815;Tachov;Plzeňský
34901;Tachov;Plzeňský
34952;Tachov;Plzeňský
34953;Tachov;Plzeňský
34958;Tachov;Plzeňský
34961;Tachov;Plzeňský
35002;Cheb;Karlovarský
35101;Cheb;Karlovarský
35124;Cheb;Karlovarský
35131;Cheb;Karlovarský
35132;Cheb;Karlovarský
35134;Cheb;Karlovarský
35135;Cheb;Karlovarský
35137;Cheb;Karlovarský
35201;Cheb;Karlovarský
35301;Cheb;Karlovarský
35491;Cheb;Karlovarský
35493;Cheb;Karlovarský
35601;Sokolov;Karlovarský
35604;Sokolov;Karlovarský
35701;Sokolov;Karlovarský
35703;Sokolov;Karlovarský
35707;Sokolov;Karlovarský
35708;Sokolov;Karlovarský
35709;Sokolov;Karlovarský
35731;Sokolov;Karlovarský
35733;Sokolov;Karlovarský
35734;Sokolov;Karlovarský
35735;Karlovy Vary;Karlovarský
35751;Sokolov;Karlovarský
35755;Sokolov;Karlovarský
35801;Sokolov;Karlovarský
36001;Karlovy Vary;Karlovarský
36004;Karlovy Vary;Karlovarský
36005;Karlovy Vary;Karlovarský
36006;Karlovy Vary;Karlovarský
36007;Karlovy Vary;Karlovarský
36010;Karlovy Vary;Karlovarský
36017;Karlovy Vary;Karlovarský
36018;Karlovy Vary;Karlovarský
36221;Karlovy Vary;Karlovarský
36222;Karlovy Vary;Karlovarský
36225;Karlovy Vary;Karlovarský
36233;Karlovy Vary;Karlovarský
36234;Karlovy Vary;Karlovarský
36235;Karlovy Vary;Karlovarský
36236;Karlovy Vary;Karlovarský
36251;Karlovy Vary;Karlovarský
36262;Karlovy Vary;Karlovarský
36263;Karlovy Vary;Karlovarský
36272;Karlovy Vary;Karlovarský
36273;Karlovy Vary;Karlovarský
36301;Karlovy Vary;Karlovarský
36401;Karlovy Vary;Karlovarský
36452;Karlovy Vary;Karlovarský
36453;Karlovy Vary;Karlovarský
36461;Cheb;Karlovarský
36464;Karlovy Vary;Karlovarský
36471;Karlovy Vary;Karlovarský
37001;České Budějovice;Jihočeský
37004;České Budějovice;Jihočeský
37005;České Budějovice;Jihočeský
37006;České Budějovice;Jihočeský
37007;České Budějovice;Jihočeský
37008;České Budějovice;Jihočeský
37010;České Budějovice;Jihočeský
37011;České Budějovice;Jihočeský
37301;České Budějovice;Jihočeský
37302;České Budějovice;Jihočeský
37304;České Budějovice;Jihočeský
37305;České Budějovice;Jihočeský
37311;České Budějovice;Jihočeský
37312;České Budějovice;Jihočeský
37314;České Budějovice;Jihočeský
37315;České Budějovice;Jihočeský
37316;České Budějovice;Jihočeský
37321;České Budějovice;Jihočeský
37322;České Budějovice;Jihočeský
37323;České Budějovice;Jihočeský
37324;České Budějovice;Jihočeský
37331;České Budějovice;Jihočeský
37332;České Budějovice;Jihočeský
37333;České Budějovice;Jihočeský
37335;České Budějovice;Jihočeský
37336;České Budějovice;Jihočeský
37341;České Budějovice;Jihočeský
37343;České Budějovice;Jihočeský
37344;České Budějovice;Jihočeský
37346;České Budějovice;Jihočeský
37347;České Budějovice;Jihočeský
37348;České Budějovice;Jihočeský
37349;České Budějovice;Jihočeský
37350;České Budějovice;Jihočeský
37351;České Budějovice;Jihočeský
37361;České Budějovice;Jihočeský
37362;České Budějovice;Jihočeský
37363;České Budějovice;Jihočeský
37364;České Budějovice;Jihočeský
37365;České Budějovice;Jihočeský
37366;České Budějovice;Jihočeský
37367;České Budějovice;Jihočeský
37371;České Budějovice;Jihočeský
37372;České Budějovice;Jihočeský
37373;České Budějovice;Jihočeský
37381;České Budějovice;Jihočeský
37382;České Budějovice;Jihočeský
37384;České Budějovice;Jihočeský
37401;České Budějovice;Jihočeský
37501;České Budějovice;Jihočeský
37701;Jindřichův Hradec;Jihočeský
37801;Jindřichův Hradec;Jihočeský
37802;Jindřichův Hradec;Jihočeský
37803;Jindřichův Hradec;Jihočeský
37804;Jindřichův Hradec;Jihočeský
37806;Jindřichův Hradec;Jihočeský
37807;Jindřichův Hradec;Jihočeský
37808;Jindřichův Hradec;Jihočeský
37809;Jindřichův Hradec;Jihočeský
37810;Jindřichův Hradec;Jihočeský
37816;Jindřichův Hradec;Jihočeský
37817;Jindřichův Hradec;Jihočeský
37818;Jindřichův Hradec;Jihočeský
37821;Jindřichův Hradec;Jihočeský
37824;Jindřichův Hradec;Jihočeský
37825;Jindřichův Hradec;Jihočeský
37826;Jindřichův Hradec;Jihočeský
37831;Jindřichův Hradec;Jihočeský
37832;Jindřichův Hradec;Jihočeský
37833;Jindřichův Hradec;Jihočeský
37841;Jindřichův Hradec;Jihočeský
37842;Jindřichův Hradec;Jihočeský
37843;Jindřichův Hradec;Jihočeský
37846;Jindřichův Hradec;Jihočeský
37852;Jindřichův Hradec;Jihočeský
37853;Jindřichův Hradec;Jihočeský
37855;Jindřichův Hradec;Jihočeský
37856;Jindřichův Hradec;Jihočeský
37861;Jindřichův Hradec;Jihočeský
37862;Jindřichův Hradec;Jihočeský
37871;Jindřichův Hradec;Jihočeský
37872;Jindřichův Hradec;Jihočeský
37873;Jindřichův Hradec;Jihočeský
37881;Jindřichův Hradec;Jihočeský
37882;Jindřichův Hradec;Jihočeský
37883;Jindřichův Hradec;Jihočeský
37891;Jindřichův Hradec;Jihočeský
37892;Jindřichův Hradec;Jihočeský
37901;Jindřichův Hradec;Jihočeský
38001;Jindřichův Hradec;Jihočeský
38101;Český Krumlov;Jihočeský
38201;Český Krumlov;Jihočeský
38202;Český Krumlov;Jihočeský
38203;Český Krumlov;Jihočeský
38206;Český Krumlov;Jihočeský
38208;Český Krumlov;Jihočeský
38211;Český Krumlov;Jihočeský
38216;Český Krumlov;Jihočeský
38218;Český Krumlov;Jihočeský
38221;Český Krumlov;Jihočeský
38222;Český Krumlov;Jihočeský
38223;Český Krumlov;Jihočeský
38226;Český Krumlov;Jihočeský
38229;Český Krumlov;Jihočeský
38232;Český Krumlov;Jihočeský
38241;Český Krumlov;Jihočeský
38242;Český Krumlov;Jihočeský
38272;Český Krumlov;Jihočeský
38273;Český Krumlov;Jihočeský
38276;Český Krumlov;Jihočeský
38278;Český Krumlov;Jihočeský
38279;Český Krumlov;Jihočeský
38281;Český Krumlov;Jihočeský
38282;Český Krumlov;Jihočeský
38283;Český Krumlov;Jihočeský
38291;Český Krumlov;Jihočeský
38292;Český Krumlov;Jihočeský
38293;Český Krumlov;Jihočeský
38301;Prachatice;Jihočeský
38401;Prachatice;Jihočeský
38402;Prachatice;Jihočeský
38403;Prachatice;Jihočeský
38404;Prachatice;Jihočeský
38411;Prachatice;Jihočeský
38421;Prachatice;Jihočeský
38422;Prachatice;Jihočeský
38425;Prachatice;Jihočeský
38426;Prachatice;Jihočeský
38427;Prachatice;Jihočeský
38432;Prachatice;Jihočeský
38433;Prachatice;Jihočeský
38441;Prachatice;Jihočeský
38442;Prachatice;Jihočeský
38443;Prachatice;Jihočeský
38444;Prachatice;Jihočeský
38451;Český Krumlov;Jihočeský
38462;Prachatice;Jihočeský
38471;Prachatice;Jihočeský
38472;Prachatice;Jihočeský
38473;Prachatice;Jihočeský
38481;Prachatice;Jihočeský
38486;Prachatice;Jihočeský
38491;Prachatice;Jihočeský
38492;Prachatice;Jihočeský
38493;Prachatice;Jihočeský
38501;Klatovy;Plzeňský
38601;Strakonice;Jihočeský
38701;Strakonice;Jihočeský
38706;Strakonice;Jihočeský
38711;Strakonice;Jihočeský
38715;Strakonice;Jihočeský
38716;Strakonice;Jihočeský
38719;Strakonice;Jihočeský
38731;Strakonice;Jihočeský
38732;Strakonice;Jihočeský
38733;Strakonice;Jihočeský
38734;Strakonice;Jihočeský
38735;Strakonice;Jihočeský
38736;Strakonice;Jihočeský
38737;Strakonice;Jihočeský
38742;Strakonice;Jihočeský
38743;Strakonice;Jihočeský
38751;Strakonice;Jihočeský
38752;Strakonice;Jihočeský
38756;Strakonice;Jihočeský
38771;Strakonice;Jihočeský
38772;Strakonice;Jihočeský
38773;Strakonice;Jihočeský
38775;Strakonice;Jihočeský
38801;Strakonice;Jihočeský
38901;Strakonice;Jihočeský
39001;Tábor;Jihočeský
39002;Tábor;Jihočeský
39003;Tábor;Jihočeský
39005;Tábor;Jihočeský
39101;Tábor;Jihočeský
39102;Tábor;Jihočeský
39111;Tábor;Jihočeský
39116;Tábor;Jihočeský
39117;Tábor;Jihočeský
39118;Tábor;Jihočeský
39120;Tábor;Jihočeský
39121;Tábor;Jihočeský
39126;Tábor;Jihočeský
39127;Tábor;Jihočeský
39131;Tábor;Jihočeský
39132;Tábor;Jihočeský
39133;Tábor;Jihočeský
39135;Tábor;Jihočeský
39136;Tábor;Jihočeský
39137;Tábor;Jihočeský
39142;Tábor;Jihočeský
39143;Tábor;Jihočeský
39152;Tábor;Jihočeský
39153;Tábor;Jihočeský
39155;Tábor;Jihočeský
39156;Tábor;Jihočeský
39161;Tábor;Jihočeský
39162;Tábor;Jihočeský
39165;Tábor;Jihočeský
39171;Tábor;Jihočeský
39172;Tábor;Jihočeský
39173;Tábor;Jihočeský
39174;Tábor;Jihočeský
39175;Tábor;Jihočeský
39176;Tábor;Jihočeský
39181;Tábor;Jihočeský
39201;Tábor;Jihočeský
39301;Pelhřimov;Vysočina
39401;Pelhřimov;Vysočina
39403;Pelhřimov;Vysočina
39404;Pelhřimov;Vysočina
39405;Pelhřimov;Vysočina
39409;Pelhřimov;Vysočina
39411;Pelhřimov;Vysočina
39412;Pelhřimov;Vysočina
39413;Pelhřimov;Vysočina
39414;Pelhřimov;Vysočina
39415;Pelhřimov;Vysočina
39421;Pelhřimov;Vysočina
39422;Pelhřimov;Vysočina
39424;Pelhřimov;Vysočina
39426;Pelhřimov;Vysočina
39427;Pelhřimov;Vysočina
39428;Pelhřimov;Vysočina
39443;Pelhřimov;Vysočina
39444;Pelhřimov;Vysočina
39445;Pelhřimov;Vysočina
39446;Pelhřimov;Vysočina
39451;Pelhřimov;Vysočina
39452;Pelhřimov;Vysočina
39456;Pelhřimov;Vysočina
39459;Pelhřimov;Vysočina
39461;Pelhřimov;Vysočina
39462;Pelhřimov;Vysočina
39463;Pelhřimov;Vysočina
39464;Pelhřimov;Vysočina
39468;Pelhřimov;Vysočina
39470;Pelhřimov;Vysočina
39491;Pelhřimov;Vysočina
39492;Pelhřimov;Vysočina
39493;Pelhřimov;Vysočina
39494;Pelhřimov;Vysočina
39495;Pelhřimov;Vysočina
39496;Pelhřimov;Vysočina
39501;Pelhřimov;Vysočina
39601;Pelhřimov;Vysočina
39701;Písek;Jihočeský
39801;Písek;Jihočeský
39804;Písek;Jihočeský
39806;Písek;Jihočeský
39807;Písek;Jihočeský
39811;Písek;Jihočeský
39815;Písek;Jihočeský
39816;Písek;Jihočeský
39817;Písek;Jihočeský
39818;Písek;Jihočeský
39819;Písek;Jihočeský
39821;Písek;Jihočeský
39822;Písek;Jihočeský
39831;Písek;Jihočeský
39832;Písek;Jihočeský
39833;Písek;Jihočeský
39834;Písek;Jihočeský
39835;Písek;Jihočeský
39842;Písek;Jihočeský
39843;Písek;Jihočeský
39847;Písek;Jihočeský
39848;Písek;Jihočeský
39851;Písek;Jihočeský
39852;Tábor;Jihočeský
39853;Písek;Jihočeský
39855;Písek;Jihočeský
39858;Písek;Jihočeský
39859;Písek;Jihočeský
39901;Příbram;Středočeský
40001;Ústí nad Labem;Ústecký
40002;Ústí nad Labem;Ústecký
40003;Ústí nad Labem;Ústecký
40004;Ústí nad Labem;Ústecký
40007;Ústí nad Labem;Ústecký
40010;Ústí nad Labem;Ústecký
40011;Ústí nad Labem;Ústecký
40301;Ústí nad Labem;Ústecký
40302;Ústí nad Labem;Ústecký
40313;Ústí nad Labem;Ústecký
40317;Ústí nad Labem;Ústecký
40321;Ústí nad Labem;Ústecký
40322;Ústí nad Labem;Ústecký
40323;Ústí nad Labem;Ústecký
40327;Ústí nad Labem;Ústecký
40331;Ústí nad Labem;Ústecký
40332;Ústí nad Labem;Ústecký
40334;Ústí nad Labem;Ústecký
40335;Ústí nad Labem;Ústecký
40336;Ústí nad Labem;Ústecký
40337;Ústí nad Labem;Ústecký
40338;Ústí nad Labem;Ústecký
40339;Ústí nad Labem;Ústecký
40340;Ústí nad Labem;Ústecký
40502;Děčín;Ústecký
40505;Děčín;Ústecký
40701;Děčín;Ústecký
40702;Děčín;Ústecký
40703;Děčín;Ústecký
40711;Děčín;Ústecký
40713;Děčín;Ústecký
40714;Děčín;Ústecký
40715;Děčín;Ústecký
40716;Děčín;Ústecký
40717;Děčín;Ústecký
40721;Děčín;Ústecký
40722;Děčín;Ústecký
40723;Děčín;Ústecký
40724;Děčín;Ústecký
40725;Děčín;Ústecký
40729;Děčín;Ústecký
40741;Děčín;Ústecký
40742;Děčín;Ústecký
40744;Děčín;Ústecký
40745;Děčín;Ústecký
40746;Děčín;Ústecký
40747;Děčín;Ústecký
40751;Děčín;Ústecký
40752;Děčín;Ústecký
40753;Děčín;Ústecký
40755;Děčín;Ústecký
40756;Děčín;Ústecký
40757;Děčín;Ústecký
40760;Děčín;Ústecký
40761;Děčín;Ústecký
40777;Děčín;Ústecký
40778;Děčín;Ústecký
40779;Děčín;Ústecký
40780;Děčín;Ústecký
40781;Děčín;Ústecký
40782;Děčín;Ústecký
40784;Děčín;Ústecký
40801;Děčín;Ústecký
41002;Litoměřice;Ústecký
41101;Litoměřice;Ústecký
41103;Litoměřice;Ústecký
41108;Litoměřice;Ústecký
41111;Litoměřice;Ústecký
41112;Litoměřice;Ústecký
41113;Litoměřice;Ústecký
41114;Litoměřice;Ústecký
41115;Litoměřice;Ústecký
41116;Litoměřice;Ústecký
41117;Litoměřice;Ústecký
41118;Litoměřice;Ústecký
41119;Litoměřice;Ústecký
41120;Litoměřice;Ústecký
41121;Litoměřice;Ústecký
41131;Litoměřice;Ústecký
41132;Litoměřice;Ústecký
41133;Litoměřice;Ústecký
41141;Litoměřice;Ústecký
41142;Litoměřice;Ústecký
41145;Litoměřice;Ústecký
41146;Litoměřice;Ústecký
41147;Litoměřice;Ústecký
41148;Litoměřice;Ústecký
41155;Litoměřice;Ústecký
41156;Litoměřice;Ústecký
41162;Litoměřice;Ústecký
41164;Litoměřice;Ústecký
41171;Litoměřice;Ústecký
41172;Litoměřice;Ústecký
41173;Litoměřice;Ústecký
41174;Litoměřice;Ústecký
41181;Litoměřice;Ústecký
41182;Litoměřice;Ústecký
41183;Litoměřice;Ústecký
41184;Litoměřice;Ústecký
41185;Litoměřice;Ústecký
41186;Litoměřice;Ústecký
41187;Litoměřice;Ústecký
41201;Litoměřice;Ústecký
41301;Litoměřice;Ústecký
41501;Teplice;Ústecký
41503;Teplice;Ústecký
41510;Teplice;Ústecký
41701;Teplice;Ústecký
41702;Teplice;Ústecký
41703;Teplice;Ústecký
41704;Teplice;Ústecký
41705;Teplice;Ústecký
41712;Teplice;Ústecký
41713;Teplice;Ústecký
41722;Teplice;Ústecký
41723;Teplice;Ústecký
41724;Teplice;Ústecký
41725;Teplice;Ústecký
41731;Teplice;Ústecký
41741;Teplice;Ústecký
41742;Teplice;Ústecký
41752;Teplice;Ústecký
41753;Teplice;Ústecký
41754;Teplice;Ústecký
41757;Teplice;Ústecký
41761;Teplice;Ústecký
41762;Teplice;Ústecký
41763;Teplice;Ústecký
41765;Teplice;Ústecký
41771;Teplice;Ústecký
41772;Teplice;Ústecký
41781;Teplice;Ústecký
41801;Teplice;Ústecký
41804;Teplice;Ústecký
41901;Teplice;Ústecký
43001;Chomutov;Ústecký
43003;Chomutov;Ústecký
43004;Chomutov;Ústecký
43101;Chomutov;Ústecký
43102;Chomutov;Ústecký
43111;Chomutov;Ústecký
43114;Chomutov;Ústecký
43115;Chomutov;Ústecký
43121;Chomutov;Ústecký
43132;Chomutov;Ústecký
43141;Chomutov;Ústecký
43143;Chomutov;Ústecký
43144;Chomutov;Ústecký
43145;Chomutov;Ústecký
43151;Karlovy Vary;Karlovarský
43153;Chomutov;Ústecký
43154;Chomutov;Ústecký
43155;Chomutov;Ústecký
43156;Chomutov;Ústecký
43157;Chomutov;Ústecký
43158;Chomutov;Ústecký
43159;Chomutov;Ústecký
43163;Chomutov;Ústecký
43182;Chomutov;Ústecký
43183;Chomutov;Ústecký
43184;Chomutov;Ústecký
43186;Chomutov;Ústecký
43191;Chomutov;Ústecký
43201;Chomutov;Ústecký
43401;Most;Ústecký
43501;Most;Ústecký
43502;Most;Ústecký
43511;Most;Ústecký
43513;Most;Ústecký
43521;Most;Ústecký
43522;Most;Ústecký
43524;Most;Ústecký
43526;Most;Ústecký
43532;Most;Ústecký
43533;Most;Ústecký
43542;Most;Ústecký
43543;Most;Ústecký
43545;Most;Ústecký
43546;Most;Ústecký
43547;Most;Ústecký
43601;Most;Ústecký
43603;Most;Ústecký
43801;Louny;Ústecký
43901;Louny;Ústecký
43902;Louny;Ústecký
43903;Louny;Ústecký
43904;Louny;Ústecký
43905;Louny;Ústecký
43906;Louny;Ústecký
43907;Louny;Ústecký
43908;Louny;Ústecký
43909;Louny;Ústecký
43914;Louny;Ústecký
43915;Louny;Ústecký
43921;Louny;Ústecký
43922;Louny;Ústecký
43923;Louny;Ústecký
43924;Louny;Ústecký
43926;Louny;Ústecký
43931;Louny;Ústecký
43942;Louny;Ústecký
43949;Louny;Ústecký
43963;Louny;Ústecký
43965;Louny;Ústecký
43967;Louny;Ústecký
43968;Louny;Ústecký
43969;Louny;Ústecký
43971;Louny;Ústecký
43972;Louny;Ústecký
43975;Louny;Ústecký
43981;Louny;Ústecký
43982;Louny;Ústecký
43983;Louny;Ústecký
43984;Louny;Ústecký
43985;Louny;Ústecký
43986;Louny;Ústecký
43987;Louny;Ústecký
43988;Louny;Ústecký
44001;Louny;Ústecký
44101;Karlovy Vary;Karlovarský
46001;Liberec;Liberecký
46005;Liberec;Liberecký
46006;Liberec;Liberecký
46007;Liberec;Liberecký
46008;Liberec;Liberecký
46010;Liberec;Liberecký
46014;Liberec;Liberecký
46015;Liberec;Liberecký
46303;Liberec;Liberecký
46311;Liberec;Liberecký
46312;Liberec;Liberecký
46331;Liberec;Liberecký
46334;Liberec;Liberecký
46342;Jablonec nad Nisou;Liberecký
46343;Liberec;Liberecký
46344;Liberec;Liberecký
46345;Liberec;Liberecký
46346;Liberec;Liberecký
46348;Liberec;Liberecký
46352;Liberec;Liberecký
46353;Liberec;Liberecký
46362;Liberec;Liberecký
46365;Liberec;Liberecký
46373;Liberec;Liberecký
46401;Liberec;Liberecký
46601;Jablonec nad Nisou;Liberecký
46602;Jablonec nad Nisou;Liberecký
46604;Jablonec nad Nisou;Liberecký
46605;Jablonec nad Nisou;Liberecký
46606;Jablonec nad Nisou;Liberecký
46801;Jablonec nad Nisou;Liberecký
46802;Jablonec nad Nisou;Liberecký
46803;Jablonec nad Nisou;Liberecký
46804;Jablonec nad Nisou;Liberecký
46811;Jablonec nad Nisou;Liberecký
46812;Jablonec nad Nisou;Liberecký
46821;Jablonec nad Nisou;Liberecký
46822;Jablonec nad Nisou;Liberecký
46824;Jablonec nad Nisou;Liberecký
46825;Jablonec nad Nisou;Liberecký
46826;Jablonec nad Nisou;Liberecký
46827;Jablonec nad Nisou;Liberecký
46833;Jablonec nad Nisou;Liberecký
46841;Jablonec nad Nisou;Liberecký
46843;Jablonec nad Nisou;Liberecký
46844;Jablonec nad Nisou;Liberecký
46845;Jablonec nad Nisou;Liberecký
46846;Jablonec nad Nisou;Liberecký
46847;Jablonec nad Nisou;Liberecký
46848;Jablonec nad Nisou;Liberecký
46849;Jablonec nad Nisou;Liberecký
46850;Jablonec nad Nisou;Liberecký
46851;Jablonec nad Nisou;Liberecký
46861;Jablonec nad Nisou;Liberecký
46871;Jablonec nad Nisou;Liberecký
47001;Česká Lípa;Liberecký
47002;Česká Lípa;Liberecký
47006;Česká Lípa;Liberecký
47101;Česká Lípa;Liberecký
47102;Česká Lípa;Liberecký
47103;Česká Lípa;Liberecký
47104;Česká Lípa;Liberecký
47105;Česká Lípa;Liberecký
47106;Česká Lípa;Liberecký
47107;Česká Lípa;Liberecký
47108;Česká Lípa;Liberecký
47111;Česká Lípa;Liberecký
47112;Česká Lípa;Liberecký
47113;Česká Lípa;Liberecký
47114;Česká Lípa;Liberecký
47115;Česká Lípa;Liberecký
47116;Česká Lípa;Liberecký
47117;Česká Lípa;Liberecký
47118;Česká Lípa;Liberecký
47121;Česká Lípa;Liberecký
47123;Česká Lípa;Liberecký
47124;Česká Lípa;Liberecký
47125;Liberec;Liberecký
47126;Česká Lípa;Liberecký
47127;Česká Lípa;Liberecký
47128;Česká Lípa;Liberecký
47129;Česká Lípa;Liberecký
47141;Česká Lípa;Liberecký
47151;Česká Lípa;Liberecký
47152;Česká Lípa;Liberecký
47153;Česká Lípa;Liberecký
47154;Česká Lípa;Liberecký
47155;Česká Lípa;Liberecký
47156;Česká Lípa;Liberecký
47157;Česká Lípa;Liberecký
47158;Česká Lípa;Liberecký
47161;Česká Lípa;Liberecký
47162;Česká Lípa;Liberecký
47163;Česká Lípa;Liberecký
47167;Česká Lípa;Liberecký
47201;Česká Lípa;Liberecký
47301;Česká Lípa;Liberecký
50002;Hradec Králové;Královéhradecký
50003;Hradec Králové;Královéhradecký
50004;Hradec Králové;Královéhradecký
50006;Hradec Králové;Královéhradecký
50008;Hradec Králové;Královéhradecký
50009;Hradec Králové;Královéhradecký
50011;Hradec Králové;Královéhradecký
50012;Hradec Králové;Královéhradecký
50301;Hradec Králové;Královéhradecký
50302;Hradec Králové;Královéhradecký
50303;Hradec Králové;Královéhradecký
50304;Hradec Králové;Královéhradecký
50305;Hradec Králové;Královéhradecký
50306;Hradec Králové;Královéhradecký
50311;Hradec Králové;Královéhradecký
50312;Hradec Králové;Královéhradecký
50313;Hradec Králové;Královéhradecký
50314;Hradec Králové;Královéhradecký
50315;Hradec Králové;Královéhradecký
50316;Hradec Králové;Královéhradecký
50321;Hradec Králové;Královéhradecký
50322;Hradec Králové;Královéhradecký
50323;Hradec Králové;Královéhradecký
50324;Hradec Králové;Královéhradecký
50325;Hradec Králové;Královéhradecký
50326;Hradec Králové;Královéhradecký
50327;Hradec Králové;Královéhradecký
50331;Hradec Králové;Královéhradecký
50332;Hradec Králové;Královéhradecký
50333;Hradec Králové;Královéhradecký
50341;Hradec Králové;Královéhradecký
50343;Hradec Králové;Královéhradecký
50344;Hradec Králové;Královéhradecký
50346;Hradec Králové;Královéhradecký
50351;Nymburk;Středočeský
50352;Hradec Králové;Královéhradecký
50353;Hradec Králové;Královéhradecký
50354;Hradec Králové;Královéhradecký
50355;Hradec Králové;Královéhradecký
50356;Hradec Králové;Královéhradecký
50357;Hradec Králové;Královéhradecký
50361;Hradec Králové;Královéhradecký
50362;Hradec Králové;Královéhradecký
50363;Hradec Králové;Královéhradecký
50364;Hradec Králové;Královéhradecký
50365;Hradec Králové;Královéhradecký
50366;Hradec Králové;Královéhradecký
50401;Hradec Králové;Královéhradecký
50601;Jičín;Královéhradecký
50702;Jičín;Královéhradecký
50703;Hradec Králové;Královéhradecký
50704;Jičín;Královéhradecký
50705;Jičín;Královéhradecký
50706;Jičín;Královéhradecký
50707;Jičín;Královéhradecký
50711;Jičín;Královéhradecký
50712;Jičín;Královéhradecký
50713;Jičín;Královéhradecký
50715;Jičín;Královéhradecký
50721;Jičín;Královéhradecký
50722;Jičín;Královéhradecký
50723;Jičín;Královéhradecký
50724;Jičín;Královéhradecký
50731;Jičín;Královéhradecký
50732;Jičín;Královéhradecký
50733;Jičín;Královéhradecký
50734;Jičín;Královéhradecký
50742;Jičín;Královéhradecký
50743;Jičín;Královéhradecký
50744;Jičín;Královéhradecký
50745;Jičín;Královéhradecký
50752;Jičín;Královéhradecký
50753;Jičín;Královéhradecký
50754;Jičín;Královéhradecký
50758;Jičín;Královéhradecký
50759;Jičín;Královéhradecký
50771;Jičín;Královéhradecký
50773;Jičín;Královéhradecký
50777;Jičín;Královéhradecký
50781;Jičín;Královéhradecký
50782;Jičín;Královéhradecký
50791;Jičín;Královéhradecký
50792;Jičín;Královéhradecký
50801;Jičín;Královéhradecký
50901;Jičín;Královéhradecký
51101;Semily;Liberecký
51201;Semily;Liberecký
51202;Semily;Liberecký
51203;Semily;Liberecký
51204;Semily;Liberecký
51206;Semily;Liberecký
51211;Semily;Liberecký
51212;Semily;Liberecký
51213;Semily;Liberecký
51231;Semily;Liberecký
51232;Semily;Liberecký
51233;Semily;Liberecký
51234;Semily;Liberecký
51235;Semily;Liberecký
51236;Semily;Liberecký
51237;Semily;Liberecký
51238;Semily;Liberecký
51241;Semily;Liberecký
51242;Semily;Liberecký
51243;Semily;Liberecký
51244;Semily;Liberecký
51245;Semily;Liberecký
51246;Semily;Liberecký
51247;Semily;Liberecký
51251;Semily;Liberecký
51252;Semily;Liberecký
51253;Semily;Liberecký
51261;Semily;Liberecký
51263;Semily;Liberecký
51264;Semily;Liberecký
51265;Semily;Liberecký
51271;Semily;Liberecký
51301;Semily;Liberecký
51401;Semily;Liberecký
51601;Rychnov nad Kněžnou;Královéhradecký
51603;Rychnov nad Kněžnou;Královéhradecký
51701;Rychnov nad Kněžnou;Královéhradecký
51702;Rychnov nad Kněžnou;Královéhradecký
51703;Rychnov nad Kněžnou;Královéhradecký
51704;Rychnov nad Kněžnou;Královéhradecký
51711;Rychnov nad Kněžnou;Královéhradecký
51712;Rychnov nad Kněžnou;Královéhradecký
51721;Rychnov nad Kněžnou;Královéhradecký
51722;Rychnov nad Kněžnou;Královéhradecký
51723;Rychnov nad Kněžnou;Královéhradecký
51724;Rychnov nad Kněžnou;Královéhradecký
51725;Rychnov nad Kněžnou;Královéhradecký
51731;Rychnov nad Kněžnou;Královéhradecký
51732;Rychnov nad Kněžnou;Královéhradecký
51733;Rychnov nad Kněžnou;Královéhradecký
51734;Rychnov nad Kněžnou;Královéhradecký
51735;Rychnov nad Kněžnou;Královéhradecký
51736;Rychnov nad Kněžnou;Královéhradecký
51741;Rychnov nad Kněžnou;Královéhradecký
51742;Rychnov nad Kněžnou;Královéhradecký
51743;Rychnov nad Kněžnou;Královéhradecký
51745;Rychnov nad Kněžnou;Královéhradecký
51750;Rychnov nad Kněžnou;Královéhradecký
51754;Rychnov nad Kněžnou;Královéhradecký
51755;Rychnov nad Kněžnou;Královéhradecký
51756;Rychnov nad Kněžnou;Královéhradecký
51757;Rychnov nad Kněžnou;Královéhradecký
51761;Rychnov nad Kněžnou;Královéhradecký
51764;Rychnov nad Kněžnou;Královéhradecký
51771;Rychnov nad Kněžnou;Královéhradecký
51772;Hradec Králové;Královéhradecký
51773;Rychnov nad Kněžnou;Královéhradecký
51783;Rychnov nad Kněžnou;Královéhradecký
51784;Rychnov nad Kněžnou;Královéhradecký
51791;Rychnov nad Kněžnou;Královéhradecký
51792;Rychnov nad Kněžnou;Královéhradecký
51793;Rychnov nad Kněžnou;Královéhradecký
51801;Rychnov nad Kněžnou;Královéhradecký
51803;Rychnov nad Kněžnou;Královéhradecký
53002;Pardubice;Pardubický
53003;Pardubice;Pardubický
53006;Pardubice;Pardubický
53009;Pardubice;Pardubický
53012;Pardubice;Pardubický
53301;Pardubice;Pardubický
53303;Pardubice;Pardubický
53304;Pardubice;Pardubický
53305;Pardubice;Pardubický
53311;Pardubice;Pardubický
53312;Pardubice;Pardubický
53313;Pardubice;Pardubický
53314;Pardubice;Pardubický
53315;Pardubice;Pardubický
53316;Pardubice;Pardubický
53321;Pardubice;Pardubický
53322;Pardubice;Pardubický
53332;Pardubice;Pardubický
53333;Pardubice;Pardubický
53341;Pardubice;Pardubický
53342;Pardubice;Pardubický
53343;Pardubice;Pardubický
53344;Pardubice;Pardubický
53345;Pardubice;Pardubický
53351;Pardubice;Pardubický
53352;Pardubice;Pardubický
53353;Pardubice;Pardubický
53354;Pardubice;Pardubický
53361;Pardubice;Pardubický
53362;Pardubice;Pardubický
53363;Pardubice;Pardubický
53364;Pardubice;Pardubický
53371;Pardubice;Pardubický
53372;Pardubice;Pardubický
53373;Pardubice;Pardubický
53374;Pardubice;Pardubický
53375;Pardubice;Pardubický
53401;Pardubice;Pardubický
53501;Pardubice;Pardubický
53701;Chrudim;Pardubický
53703;Chrudim;Pardubický
53705;Chrudim;Pardubický
53801;Chrudim;Pardubický
53802;Chrudim;Pardubický
53803;Chrudim;Pardubický
53804;Chrudim;Pardubický
53805;Chrudim;Pardubický
53807;Chrudim;Pardubický
53821;Chrudim;Pardubický
53823;Chrudim;Pardubický
53824;Chrudim;Pardubický
53825;Chrudim;Pardubický
53826;Chrudim;Pardubický
53831;Chrudim;Pardubický
53832;Chrudim;Pardubický
53833;Chrudim;Pardubický
53834;Chrudim;Pardubický
53835;Chrudim;Pardubický
53836;Chrudim;Pardubický
53841;Chrudim;Pardubický
53842;Chrudim;Pardubický
53843;Chrudim;Pardubický
53845;Chrudim;Pardubický
53851;Chrudim;Pardubický
53854;Chrudim;Pardubický
53861;Chrudim;Pardubický
53862;Chrudim;Pardubický
53863;Chrudim;Pardubický
53864;Chrudim;Pardubický
53865;Ústí nad Orlicí;Pardubický
53901;Chrudim;Pardubický
53941;Chrudim;Pardubický
53942;Chrudim;Pardubický
53943;Chrudim;Pardubický
53944;Chrudim;Pardubický
53945;Ústí nad Orlicí;Pardubický
53952;Chrudim;Pardubický
53953;Chrudim;Pardubický
53955;Chrudim;Pardubický
53956;Chrudim;Pardubický
53957;Chrudim;Pardubický
53961;Chrudim;Pardubický
53962;Chrudim;Pardubický
53971;Chrudim;Pardubický
53972;Chrudim;Pardubický
53973;Chrudim;Pardubický
53974;Chrudim;Pardubický
53976;Chrudim;Pardubický
54101;Trutnov;Královéhradecký
54102;Trutnov;Královéhradecký
54103;Trutnov;Královéhradecký
54201;Trutnov;Královéhradecký
54203;Trutnov;Královéhradecký
54204;Trutnov;Královéhradecký
54211;Trutnov;Královéhradecký
54212;Trutnov;Královéhradecký
54213;Trutnov;Královéhradecký
54221;Trutnov;Královéhradecký
54223;Trutnov;Královéhradecký
54224;Trutnov;Královéhradecký
54225;Trutnov;Královéhradecký
54226;Trutnov;Královéhradecký
54227;Trutnov;Královéhradecký
54232;Náchod;Královéhradecký
54233;Trutnov;Královéhradecký
54234;Trutnov;Královéhradecký
54235;Trutnov;Královéhradecký
54236;Trutnov;Královéhradecký
54237;Trutnov;Královéhradecký
54242;Trutnov;Královéhradecký
54301;Trutnov;Královéhradecký
54302;Trutnov;Královéhradecký
54303;Trutnov;Královéhradecký
54341;Trutnov;Královéhradecký
54342;Trutnov;Královéhradecký
54344;Trutnov;Královéhradecký
54351;Trutnov;Královéhradecký
54352;Trutnov;Královéhradecký
54361;Trutnov;Královéhradecký
54362;Trutnov;Královéhradecký
54371;Trutnov;Královéhradecký
54372;Trutnov;Královéhradecký
54373;Trutnov;Královéhradecký
54374;Trutnov;Královéhradecký
54375;Trutnov;Královéhradecký
54376;Trutnov;Královéhradecký
54377;Trutnov;Královéhradecký
54401;Trutnov;Královéhradecký
54404;Trutnov;Královéhradecký
54442;Trutnov;Královéhradecký
54443;Náchod;Královéhradecký
54451;Trutnov;Královéhradecký
54452;Trutnov;Královéhradecký
54454;Trutnov;Královéhradecký
54455;Trutnov;Královéhradecký
54461;Trutnov;Královéhradecký
54462;Trutnov;Královéhradecký
54464;Trutnov;Královéhradecký
54466;Trutnov;Královéhradecký
54472;Trutnov;Královéhradecký
54474;Trutnov;Královéhradecký
54475;Trutnov;Královéhradecký
54477;Trutnov;Královéhradecký
54701;Náchod;Královéhradecký
54901;Náchod;Královéhradecký
54906;Náchod;Královéhradecký
54907;Náchod;Královéhradecký
54908;Náchod;Královéhradecký
54911;Náchod;Královéhradecký
54912;Náchod;Královéhradecký
54921;Náchod;Královéhradecký
54922;Náchod;Královéhradecký
54923;Náchod;Královéhradecký
54931;Náchod;Královéhradecký
54932;Náchod;Královéhradecký
54934;Náchod;Královéhradecký
54936;Náchod;Královéhradecký
54937;Náchod;Královéhradecký
54941;Náchod;Královéhradecký
54946;Náchod;Královéhradecký
54947;Náchod;Královéhradecký
54948;Náchod;Královéhradecký
54952;Náchod;Královéhradecký
54954;Náchod;Královéhradecký
54955;Náchod;Královéhradecký
54956;Náchod;Královéhradecký
54957;Náchod;Královéhradecký
54962;Náchod;Královéhradecký
54963;Náchod;Královéhradecký
54964;Náchod;Královéhradecký
54971;Náchod;Královéhradecký
54972;Náchod;Královéhradecký
54973;Náchod;Královéhradecký
54974;Náchod;Královéhradecký
54981;Náchod;Královéhradecký
54982;Náchod;Královéhradecký
54983;Náchod;Královéhradecký
54984;Náchod;Královéhradecký
55001;Náchod;Královéhradecký
55101;Náchod;Královéhradecký
55102;Náchod;Královéhradecký
55203;Náchod;Královéhradecký
55204;Náchod;Královéhradecký
55205;Náchod;Královéhradecký
55211;Náchod;Královéhradecký
55212;Náchod;Královéhradecký
55221;Náchod;Královéhradecký
55222;Náchod;Královéhradecký
55224;Náchod;Královéhradecký
55225;Náchod;Královéhradecký
56002;Ústí nad Orlicí;Pardubický
56101;Ústí nad Orlicí;Pardubický
56102;Ústí nad Orlicí;Pardubický
56112;Ústí nad Orlicí;Pardubický
56113;Ústí nad Orlicí;Pardubický
56114;Ústí nad Orlicí;Pardubický
56115;Ústí nad Orlicí;Pardubický
56116;Ústí nad Orlicí;Pardubický
56117;Ústí nad Orlicí;Pardubický
56118;Svitavy;Pardubický
56122;Ústí nad Orlicí;Pardubický
56123;Ústí nad Orlicí;Pardubický
56124;Ústí nad Orlicí;Pardubický
56125;Ústí nad Orlicí;Pardubický
56131;Ústí nad Orlicí;Pardubický
56132;Ústí nad Orlicí;Pardubický
56133;Ústí nad Orlicí;Pardubický
56134;Ústí nad Orlicí;Pardubický
56141;Ústí nad Orlicí;Pardubický
56151;Ústí nad Orlicí;Pardubický
56152;Ústí nad Orlicí;Pardubický
56153;Ústí nad Orlicí;Pardubický
56154;Ústí nad Orlicí;Pardubický
56155;Ústí nad Orlicí;Pardubický
56156;Ústí nad Orlicí;Pardubický
56161;Ústí nad Orlicí;Pardubický
56162;Ústí nad Orlicí;Pardubický
56163;Ústí nad Orlicí;Pardubický
56164;Ústí nad Orlicí;Pardubický
56165;Ústí nad Orlicí;Pardubický
56166;Ústí nad Orlicí;Pardubický
56167;Ústí nad Orlicí;Pardubický
56168;Ústí nad Orlicí;Pardubický
56169;Ústí nad Orlicí;Pardubický
56170;Ústí nad Orlicí;Pardubický
56181;Ústí nad Orlicí;Pardubický
56182;Ústí nad Orlicí;Pardubický
56184;Ústí nad Orlicí;Pardubický
56185;Ústí nad Orlicí;Pardubický
56186;Ústí nad Orlicí;Pardubický
56201;Ústí nad Orlicí;Pardubický
56203;Ústí nad Orlicí;Pardubický
56204;Ústí nad Orlicí;Pardubický
56206;Ústí nad Orlicí;Pardubický
56301;Ústí nad Orlicí;Pardubický
56401;Ústí nad Orlicí;Pardubický
56501;Ústí nad Orlicí;Pardubický
56542;Ústí nad Orlicí;Pardubický
56543;Ústí nad Orlicí;Pardubický
56544;Ústí nad Orlicí;Pardubický
56552;Ústí nad Orlicí;Pardubický
56553;Svitavy;Pardubický
56555;Ústí nad Orlicí;Pardubický
56601;Ústí nad Orlicí;Pardubický
56802;Svitavy;Pardubický
56901;Svitavy;Pardubický
56902;Svitavy;Pardubický
56903;Svitavy;Pardubický
56904;Svitavy;Pardubický
56905;Svitavy;Pardubický
56906;Svitavy;Pardubický
56907;Svitavy;Pardubický
56911;Svitavy;Pardubický
56912;Svitavy;Pardubický
56914;Svitavy;Pardubický
56921;Svitavy;Pardubický
56922;Svitavy;Pardubický
56923;Svitavy;Pardubický
56924;Svitavy;Pardubický
56932;Svitavy;Pardubický
56933;Svitavy;Pardubický
56934;Svitavy;Pardubický
56935;Svitavy;Pardubický
56941;Svitavy;Pardubický
56942;Svitavy;Pardubický
56943;Svitavy;Pardubický
56944;Svitavy;Pardubický
56951;Svitavy;Pardubický
56953;Svitavy;Pardubický
56955;Svitavy;Pardubický
56956;Svitavy;Pardubický
56957;Svitavy;Pardubický
56961;Svitavy;Pardubický
56962;Svitavy;Pardubický
56963;Svitavy;Pardubický
56965;Svitavy;Pardubický
56966;Svitavy;Pardubický
56967;Svitavy;Pardubický
56971;Svitavy;Pardubický
56972;Svitavy;Pardubický
56973;Svitavy;Pardubický
56974;Svitavy;Pardubický
56982;Chrudim;Pardubický
56991;Svitavy;Pardubický
56992;Svitavy;Pardubický
56993;Svitavy;Pardubický
56994;Svitavy;Pardubický
57001;Svitavy;Pardubický
57101;Svitavy;Pardubický
57201;Svitavy;Pardubický
58001;Havlíčkův Brod;Vysočina
58221;Havlíčkův Brod;Vysočina
58222;Havlíčkův Brod;Vysočina
58223;Havlíčkův Brod;Vysočina
58224;Havlíčkův Brod;Vysočina
58231;Havlíčkův Brod;Vysočina
58232;Havlíčkův Brod;Vysočina
58233;Havlíčkův Brod;Vysočina
58234;Havlíčkův Brod;Vysočina
58235;Havlíčkův Brod;Vysočina
58241;Havlíčkův Brod;Vysočina
58242;Havlíčkův Brod;Vysočina
58243;Havlíčkův Brod;Vysočina
58244;Havlíčkův Brod;Vysočina
58245;Havlíčkův Brod;Vysočina
58251;Havlíčkův Brod;Vysočina
58252;Havlíčkův Brod;Vysočina
58253;Havlíčkův Brod;Vysočina
58254;Havlíčkův Brod;Vysočina
58255;Havlíčkův Brod;Vysočina
58256;Havlíčkův Brod;Vysočina
58257;Havlíčkův Brod;Vysočina
58261;Havlíčkův Brod;Vysočina
58262;Havlíčkův Brod;Vysočina
58263;Havlíčkův Brod;Vysočina
58264;Havlíčkův Brod;Vysočina
58265;Havlíčkův Brod;Vysočina
58266;Havlíčkův Brod;Vysočina
58271;Havlíčkův Brod;Vysočina
58272;Havlíčkův Brod;Vysočina
58273;Havlíčkův Brod;Vysočina
58274;Havlíčkův Brod;Vysočina
58276;Havlíčkův Brod;Vysočina
58277;Havlíčkův Brod;Vysočina
58281;Havlíčkův Brod;Vysočina
58282;Havlíčkův Brod;Vysočina
58283;Havlíčkův Brod;Vysočina
58286;Havlíčkův Brod;Vysočina
58287;Havlíčkův Brod;Vysočina
58291;Havlíčkův Brod;Vysočina
58292;Havlíčkův Brod;Vysočina
58293;Havlíčkův Brod;Vysočina
58294;Havlíčkův Brod;Vysočina
58301;Havlíčkův Brod;Vysočina
58401;Havlíčkův Brod;Vysočina
58601;Jihlava;Vysočina
58603;Jihlava;Vysočina
58801;Jihlava;Vysočina
58805;Jihlava;Vysočina
58811;Jihlava;Vysočina
58812;Jihlava;Vysočina
58813;Jihlava;Vysočina
58821;Jihlava;Vysočina
58822;Jihlava;Vysočina
58823;Jihlava;Vysočina
58824;Jihlava;Vysočina
58825;Jihlava;Vysočina
58826;Jihlava;Vysočina
58827;Jihlava;Vysočina
58831;Jihlava;Vysočina
58832;Jihlava;Vysočina
58833;Jihlava;Vysočina
58834;Jihlava;Vysočina
58835;Jihlava;Vysočina
58841;Jihlava;Vysočina
58842;Jihlava;Vysočina
58844;Jihlava;Vysočina
58845;Jihlava;Vysočina
58851;Jihlava;Vysočina
58852;Jihlava;Vysočina
58854;Jihlava;Vysočina
58856;Jihlava;Vysočina
58861;Jihlava;Vysočina
58862;Jihlava;Vysočina
58864;Jihlava;Vysočina
58865;Jihlava;Vysočina
58866;Jihlava;Vysočina
58867;Jihlava;Vysočina
58901;Jihlava;Vysočina
59101;Žďár nad Sázavou;Vysočina
59102;Žďár nad Sázavou;Vysočina
59201;Žďár nad Sázavou;Vysočina
59202;Žďár nad Sázavou;Vysočina
59203;Žďár nad Sázavou;Vysočina
59204;Žďár nad Sázavou;Vysočina
59211;Žďár nad Sázavou;Vysočina
59212;Žďár nad Sázavou;Vysočina
59213;Žďár nad Sázavou;Vysočina
59214;Žďár nad Sázavou;Vysočina
59221;Žďár nad Sázavou;Vysočina
59231;Žďár nad Sázavou;Vysočina
59232;Žďár nad Sázavou;Vysočina
59233;Žďár nad Sázavou;Vysočina
59241;Žďár nad Sázavou;Vysočina
59242;Žďár nad Sázavou;Vysočina
59244;Žďár nad Sázavou;Vysočina
59245;Žďár nad Sázavou;Vysočina
59251;Žďár nad Sázavou;Vysočina
59252;Žďár nad Sázavou;Vysočina
59253;Žďár nad Sázavou;Vysočina
59254;Žďár nad Sázavou;Vysočina
59255;Žďár nad Sázavou;Vysočina
59256;Žďár nad Sázavou;Vysočina
59257;Žďár nad Sázavou;Vysočina
59261;Brno-venkov;Jihomoravský
59262;Žďár nad Sázavou;Vysočina
59263;Žďár nad Sázavou;Vysočina
59264;Žďár nad Sázavou;Vysočina
59265;Žďár nad Sázavou;Vysočina
59266;Žďár nad Sázavou;Vysočina
59301;Blansko;Jihomoravský
59401;Žďár nad Sázavou;Vysočina
59441;Žďár nad Sázavou;Vysočina
59442;Žďár nad Sázavou;Vysočina
59444;Žďár nad Sázavou;Vysočina
59445;Žďár nad Sázavou;Vysočina
59451;Žďár nad Sázavou;Vysočina
59452;Žďár nad Sázavou;Vysočina
59453;Žďár nad Sázavou;Vysočina
59454;Žďár nad Sázavou;Vysočina
59455;Brno-venkov;Jihomoravský
59456;Brno-venkov;Jihomoravský
59457;Žďár nad Sázavou;Vysočina
59458;Žďár nad Sázavou;Vysočina
59461;Žďár nad Sázavou;Vysočina
59501;Žďár nad Sázavou;Vysočina
60200;Brno-město;Jihomoravský
60300;Brno-město;Jihomoravský
61200;Brno-město;Jihomoravský
61300;Brno-město;Jihomoravský
61400;Brno-město;Jihomoravský
61500;Brno-město;Jihomoravský
61600;Brno-město;Jihomoravský
61700;Brno-město;Jihomoravský
61800;Brno-město;Jihomoravský
61900;Brno-město;Jihomoravský
62000;Brno-město;Jihomoravský
62100;Brno-město;Jihomoravský
62300;Brno-město;Jihomoravský
62400;Brno-město;Jihomoravský
62500;Brno-město;Jihomoravský
62700;Brno-město;Jihomoravský
62800;Brno-město;Jihomoravský
63400;Brno-město;Jihomoravský
63500;Brno-město;Jihomoravský
63600;Brno-město;Jihomoravský
63700;Brno-město;Jihomoravský
63800;Brno-město;Jihomoravský
63900;Brno-město;Jihomoravský
64100;Brno-město;Jihomoravský
64200;Brno-město;Jihomoravský
64300;Brno-město;Jihomoravský
64400;Brno-město;Jihomoravský
66401;Brno-venkov;Jihomoravský
66402;Brno-venkov;Jihomoravský
66403;Brno-venkov;Jihomoravský
66404;Brno-venkov;Jihomoravský
66405;Brno-venkov;Jihomoravský
66406;Brno-venkov;Jihomoravský
66407;Brno-venkov;Jihomoravský
66408;Brno-venkov;Jihomoravský
66411;Brno-venkov;Jihomoravský
66412;Brno-venkov;Jihomoravský
66417;Brno-venkov;Jihomoravský
66423;Brno-venkov;Jihomoravský
66424;Brno-venkov;Jihomoravský
66431;Brno-venkov;Jihomoravský
66432;Brno-venkov;Jihomoravský
66434;Brno-venkov;Jihomoravský
66441;Brno-venkov;Jihomoravský
66442;Brno-město;Jihomoravský
66443;Brno-venkov;Jihomoravský
66444;Brno-venkov;Jihomoravský
66446;Brno-venkov;Jihomoravský
66447;Brno-venkov;Jihomoravský
66448;Brno-venkov;Jihomoravský
66449;Brno-venkov;Jihomoravský
66451;Brno-venkov;Jihomoravský
66452;Brno-venkov;Jihomoravský
66453;Brno-venkov;Jihomoravský
66454;Brno-venkov;Jihomoravský
66455;Brno-venkov;Jihomoravský
66456;Brno-venkov;Jihomoravský
66457;Brno-venkov;Jihomoravský
66458;Brno-venkov;Jihomoravský
66459;Brno-venkov;Jihomoravský
66461;Brno-venkov;Jihomoravský
66462;Brno-venkov;Jihomoravský
66463;Brno-venkov;Jihomoravský
66464;Brno-venkov;Jihomoravský
66465;Brno-venkov;Jihomoravský
66466;Brno-venkov;Jihomoravský
66467;Brno-venkov;Jihomoravský
66471;Brno-město;Jihomoravský
66475;Brno-venkov;Jihomoravský
66481;Brno-město;Jihomoravský
66482;Brno-venkov;Jihomoravský
66483;Brno-venkov;Jihomoravský
66484;Brno-venkov;Jihomoravský
66488;Brno-venkov;Jihomoravský
66491;Brno-venkov;Jihomoravský
66501;Brno-venkov;Jihomoravský
66601;Brno-venkov;Jihomoravský
66602;Brno-venkov;Jihomoravský
66603;Brno-venkov;Jihomoravský
66701;Brno-venkov;Jihomoravský
66902;Znojmo;Jihomoravský
66904;Znojmo;Jihomoravský
67101;Znojmo;Jihomoravský
67102;Znojmo;Jihomoravský
67103;Znojmo;Jihomoravský
67106;Znojmo;Jihomoravský
67107;Znojmo;Jihomoravský
67110;Znojmo;Jihomoravský
67122;Znojmo;Jihomoravský
67124;Znojmo;Jihomoravský
67125;Znojmo;Jihomoravský
67126;Znojmo;Jihomoravský
67127;Znojmo;Jihomoravský
67128;Znojmo;Jihomoravský
67129;Znojmo;Jihomoravský
67131;Znojmo;Jihomoravský
67132;Znojmo;Jihomoravský
67133;Znojmo;Jihomoravský
67134;Znojmo;Jihomoravský
67138;Znojmo;Jihomoravský
67139;Znojmo;Jihomoravský
67140;Znojmo;Jihomoravský
67142;Znojmo;Jihomoravský
67151;Znojmo;Jihomoravský
67152;Znojmo;Jihomoravský
67153;Znojmo;Jihomoravský
67154;Znojmo;Jihomoravský
67155;Znojmo;Jihomoravský
67156;Znojmo;Jihomoravský
67161;Znojmo;Jihomoravský
67162;Znojmo;Jihomoravský
67163;Znojmo;Jihomoravský
67164;Znojmo;Jihomoravský
67165;Znojmo;Jihomoravský
67167;Znojmo;Jihomoravský
67168;Znojmo;Jihomoravský
67169;Znojmo;Jihomoravský
67171;Znojmo;Jihomoravský
67172;Znojmo;Jihomoravský
67173;Znojmo;Jihomoravský
67175;Znojmo;Jihomoravský
67176;Znojmo;Jihomoravský
67177;Brno-venkov;Jihomoravský
67178;Znojmo;Jihomoravský
67181;Znojmo;Jihomoravský
67182;Znojmo;Jihomoravský
67201;Znojmo;Jihomoravský
67401;Třebíč;Vysočina
67501;Třebíč;Vysočina
67502;Třebíč;Vysočina
67503;Třebíč;Vysočina
67504;Třebíč;Vysočina
67505;Žďár nad Sázavou;Vysočina
67506;Třebíč;Vysočina
67507;Třebíč;Vysočina
67508;Třebíč;Vysočina
67521;Třebíč;Vysočina
67522;Třebíč;Vysočina
67523;Třebíč;Vysočina
67524;Třebíč;Vysočina
67525;Třebíč;Vysočina
67526;Jihlava;Vysočina
67527;Jihlava;Vysočina
67528;Třebíč;Vysočina
67529;Jihlava;Vysočina
67531;Třebíč;Vysočina
67532;Třebíč;Vysočina
67533;Třebíč;Vysočina
67534;Třebíč;Vysočina
67541;Třebíč;Vysočina
67542;Třebíč;Vysočina
67543;Třebíč;Vysočina
67544;Třebíč;Vysočina
67545;Třebíč;Vysočina
67550;Třebíč;Vysočina
67551;Třebíč;Vysočina
67552;Třebíč;Vysočina
67553;Třebíč;Vysočina
67554;Třebíč;Vysočina
67555;Třebíč;Vysočina
67556;Třebíč;Vysočina
67557;Třebíč;Vysočina
67559;Třebíč;Vysočina
67560;Třebíč;Vysočina
67571;Třebíč;Vysočina
67573;Třebíč;Vysočina
67574;Třebíč;Vysočina
67575;Třebíč;Vysočina
67576;Třebíč;Vysočina
67577;Třebíč;Vysočina
67578;Třebíč;Vysočina
67579;Žďár nad Sázavou;Vysočina
67602;Třebíč;Vysočina
67801;Blansko;Jihomoravský
67901;Blansko;Jihomoravský
67902;Blansko;Jihomoravský
67903;Blansko;Jihomoravský
67904;Blansko;Jihomoravský
67905;Brno-venkov;Jihomoravský
67906;Blansko;Jihomoravský
67907;Blansko;Jihomoravský
67911;Blansko;Jihomoravský
67913;Blansko;Jihomoravský
67914;Blansko;Jihomoravský
67915;Blansko;Jihomoravský
67921;Blansko;Jihomoravský
67922;Blansko;Jihomoravský
67923;Brno-venkov;Jihomoravský
67924;Brno-venkov;Jihomoravský
67931;Blansko;Jihomoravský
67932;Blansko;Jihomoravský
67933;Blansko;Jihomoravský
67934;Blansko;Jihomoravský
67935;Blansko;Jihomoravský
67936;Blansko;Jihomoravský
67937;Blansko;Jihomoravský
67938;Blansko;Jihomoravský
67939;Blansko;Jihomoravský
67951;Blansko;Jihomoravský
67952;Blansko;Jihomoravský
67953;Blansko;Jihomoravský
67961;Blansko;Jihomoravský
67962;Blansko;Jihomoravský
67963;Blansko;Jihomoravský
67971;Blansko;Jihomoravský
67972;Blansko;Jihomoravský
67973;Blansko;Jihomoravský
67974;Blansko;Jihomoravský
67975;Blansko;Jihomoravský
67976;Blansko;Jihomoravský
68001;Blansko;Jihomoravský
68201;Vyškov;Jihomoravský
68301;Vyškov;Jihomoravský
68303;Vyškov;Jihomoravský
68304;Vyškov;Jihomoravský
68305;Vyškov;Jihomoravský
68308;Vyškov;Jihomoravský
68321;Vyškov;Jihomoravský
68323;Vyškov;Jihomoravský
68333;Vyškov;Jihomoravský
68335;Vyškov;Jihomoravský
68341;Vyškov;Jihomoravský
68351;Vyškov;Jihomoravský
68352;Vyškov;Jihomoravský
68354;Vyškov;Jihomoravský
68401;Vyškov;Jihomoravský
68501;Vyškov;Jihomoravský
68601;Uherské Hradiště;Zlínský
68603;Uherské Hradiště;Zlínský
68604;Uherské Hradiště;Zlínský
68605;Uherské Hradiště;Zlínský
68606;Uherské Hradiště;Zlínský
68609;Uherské Hradiště;Zlínský
68703;Uherské Hradiště;Zlínský
68704;Uherské Hradiště;Zlínský
68705;Uherské Hradiště;Zlínský
68706;Uherské Hradiště;Zlínský
68707;Uherské Hradiště;Zlínský
68708;Uherské Hradiště;Zlínský
68709;Uherské Hradiště;Zlínský
68710;Uherské Hradiště;Zlínský
68711;Uherské Hradiště;Zlínský
68712;Uherské Hradiště;Zlínský
68713;Uherské Hradiště;Zlínský
68722;Uherské Hradiště;Zlínský
68723;Uherské Hradiště;Zlínský
68724;Uherské Hradiště;Zlínský
68725;Uherské Hradiště;Zlínský
68731;Uherské Hradiště;Zlínský
68732;Uherské Hradiště;Zlínský
68733;Uherské Hradiště;Zlínský
68734;Uherské Hradiště;Zlínský
68737;Uherské Hradiště;Zlínský
68738;Uherské Hradiště;Zlínský
68741;Uherské Hradiště;Zlínský
68742;Uherské Hradiště;Zlínský
68751;Uherské Hradiště;Zlínský
68752;Uherské Hradiště;Zlínský
68753;Uherské Hradiště;Zlínský
68754;Uherské Hradiště;Zlínský
68755;Uherské Hradiště;Zlínský
68756;Uherské Hradiště;Zlínský
68761;Uherské Hradiště;Zlínský
68762;Uherské Hradiště;Zlínský
68763;Uherské Hradiště;Zlínský
68764;Uherské Hradiště;Zlínský
68765;Uherské Hradiště;Zlínský
68766;Uherské Hradiště;Zlínský
68767;Uherské Hradiště;Zlínský
68771;Uherské Hradiště;Zlínský
68774;Uherské Hradiště;Zlínský
68801;Uherské Hradiště;Zlínský
69002;Břeclav;Jihomoravský
69003;Břeclav;Jihomoravský
69006;Břeclav;Jihomoravský
69101;Břeclav;Jihomoravský
69102;Břeclav;Jihomoravský
69103;Břeclav;Jihomoravský
69104;Břeclav;Jihomoravský
69105;Břeclav;Jihomoravský
69106;Břeclav;Jihomoravský
69107;Břeclav;Jihomoravský
69108;Břeclav;Jihomoravský
69109;Břeclav;Jihomoravský
69110;Břeclav;Jihomoravský
69111;Břeclav;Jihomoravský
69112;Břeclav;Jihomoravský
69121;Břeclav;Jihomoravský
69122;Brno-venkov;Jihomoravský
69123;Brno-venkov;Jihomoravský
69124;Brno-venkov;Jihomoravský
69125;Brno-venkov;Jihomoravský
69126;Břeclav;Jihomoravský
69127;Břeclav;Jihomoravský
69129;Břeclav;Jihomoravský
69130;Brno-venkov;Jihomoravský
69141;Břeclav;Jihomoravský
69142;Břeclav;Jihomoravský
69143;Břeclav;Jihomoravský
69144;Břeclav;Jihomoravský
69145;Břeclav;Jihomoravský
69146;Břeclav;Jihomoravský
69151;Břeclav;Jihomoravský
69152;Břeclav;Jihomoravský
69153;Břeclav;Jihomoravský
69154;Břeclav;Jihomoravský
69155;Břeclav;Jihomoravský
69156;Břeclav;Jihomoravský
69162;Břeclav;Jihomoravský
69163;Břeclav;Jihomoravský
69164;Brno-venkov;Jihomoravský
69165;Břeclav;Jihomoravský
69167;Břeclav;Jihomoravský
69168;Břeclav;Jihomoravský
69171;Břeclav;Jihomoravský
69172;Břeclav;Jihomoravský
69173;Břeclav;Jihomoravský
69174;Břeclav;Jihomoravský
69175;Břeclav;Jihomoravský
69176;Břeclav;Jihomoravský
69181;Břeclav;Jihomoravský
69182;Břeclav;Jihomoravský
69183;Břeclav;Jihomoravský
69185;Břeclav;Jihomoravský
69186;Břeclav;Jihomoravský
69188;Břeclav;Jihomoravský
69189;Břeclav;Jihomoravský
69201;Břeclav;Jihomoravský
69301;Břeclav;Jihomoravský
69501;Hodonín;Jihomoravský
69601;Hodonín;Jihomoravský
69602;Hodonín;Jihomoravský
69603;Hodonín;Jihomoravský
69604;Hodonín;Jihomoravský
69605;Hodonín;Jihomoravský
69606;Hodonín;Jihomoravský
69611;Hodonín;Jihomoravský
69612;Hodonín;Jihomoravský
69613;Hodonín;Jihomoravský
69614;Hodonín;Jihomoravský
69615;Hodonín;Jihomoravský
69616;Hodonín;Jihomoravský
69617;Hodonín;Jihomoravský
69618;Hodonín;Jihomoravský
69619;Hodonín;Jihomoravský
69621;Hodonín;Jihomoravský
69631;Hodonín;Jihomoravský
69632;Hodonín;Jihomoravský
69633;Hodonín;Jihomoravský
69634;Hodonín;Jihomoravský
69635;Hodonín;Jihomoravský
69636;Hodonín;Jihomoravský
69637;Hodonín;Jihomoravský
69638;Hodonín;Jihomoravský
69639;Hodonín;Jihomoravský
69641;Hodonín;Jihomoravský
69642;Hodonín;Jihomoravský
69647;Hodonín;Jihomoravský
69648;Hodonín;Jihomoravský
69649;Hodonín;Jihomoravský
69650;Hodonín;Jihomoravský
69651;Hodonín;Jihomoravský
69655;Hodonín;Jihomoravský
69661;Hodonín;Jihomoravský
69662;Hodonín;Jihomoravský
69663;Hodonín;Jihomoravský
69664;Hodonín;Jihomoravský
69665;Hodonín;Jihomoravský
69666;Hodonín;Jihomoravský
69667;Hodonín;Jihomoravský
69671;Hodonín;Jihomoravský
69672;Hodonín;Jihomoravský
69673;Hodonín;Jihomoravský
69674;Hodonín;Jihomoravský
69676;Hodonín;Jihomoravský
69681;Hodonín;Jihomoravský
69683;Hodonín;Jihomoravský
69684;Hodonín;Jihomoravský
69685;Hodonín;Jihomoravský
69701;Hodonín;Jihomoravský
69801;Hodonín;Jihomoravský
70030;Ostrava-město;Moravskoslezský
70200;Ostrava-město;Moravskoslezský
70300;Ostrava-město;Moravskoslezský
70800;Ostrava-město;Moravskoslezský
70900;Ostrava-město;Moravskoslezský
71000;Ostrava-město;Moravskoslezský
71100;Opava;Moravskoslezský
71200;Ostrava-město;Moravskoslezský
71300;Ostrava-město;Moravskoslezský
71500;Ostrava-město;Moravskoslezský
71600;Ostrava-město;Moravskoslezský
71700;Ostrava-město;Moravskoslezský
71800;Ostrava-město;Moravskoslezský
71900;Ostrava-město;Moravskoslezský
72000;Ostrava-město;Moravskoslezský
72100;Ostrava-město;Moravskoslezský
72200;Ostrava-město;Moravskoslezský
72300;Ostrava-město;Moravskoslezský
72400;Ostrava-město;Moravskoslezský
72525;Ostrava-město;Moravskoslezský
72526;Ostrava-město;Moravskoslezský
72527;Ostrava-město;Moravskoslezský
72528;Ostrava-město;Moravskoslezský
72529;Ostrava-město;Moravskoslezský
73301;Karviná;Moravskoslezský
73401;Karviná;Moravskoslezský
73503;Karviná;Moravskoslezský
73506;Karviná;Moravskoslezský
73511;Karviná;Moravskoslezský
73514;Karviná;Moravskoslezský
73531;Karviná;Moravskoslezský
73532;Karviná;Moravskoslezský
73533;Karviná;Moravskoslezský
73534;Karviná;Moravskoslezský
73535;Karviná;Moravskoslezský
73541;Karviná;Moravskoslezský
73542;Karviná;Moravskoslezský
73543;Karviná;Moravskoslezský
73551;Karviná;Moravskoslezský
73552;Karviná;Moravskoslezský
73553;Karviná;Moravskoslezský
73561;Karviná;Moravskoslezský
73562;Karviná;Moravskoslezský
73564;Karviná;Moravskoslezský
73571;Karviná;Moravskoslezský
73572;Karviná;Moravskoslezský
73581;Karviná;Moravskoslezský
73601;Karviná;Moravskoslezský
73701;Karviná;Moravskoslezský
73801;Frýdek-Místek;Moravskoslezský
73901;Frýdek-Místek;Moravskoslezský
73904;Frýdek-Místek;Moravskoslezský
73911;Frýdek-Místek;Moravskoslezský
73912;Frýdek-Místek;Moravskoslezský
73913;Frýdek-Místek;Moravskoslezský
73914;Frýdek-Místek;Moravskoslezský
73915;Frýdek-Místek;Moravskoslezský
73921;Frýdek-Místek;Moravskoslezský
73923;Ostrava-město;Moravskoslezský
73924;Ostrava-město;Moravskoslezský
73925;Frýdek-Místek;Moravskoslezský
73932;Ostrava-město;Moravskoslezský
73934;Ostrava-město;Moravskoslezský
73936;Frýdek-Místek;Moravskoslezský
73937;Frýdek-Místek;Moravskoslezský
73938;Frýdek-Místek;Moravskoslezský
73939;Frýdek-Místek;Moravskoslezský
73941;Frýdek-Místek;Moravskoslezský
73942;Frýdek-Místek;Moravskoslezský
73943;Frýdek-Místek;Moravskoslezský
73944;Frýdek-Místek;Moravskoslezský
73945;Frýdek-Místek;Moravskoslezský
73946;Frýdek-Místek;Moravskoslezský
73947;Frýdek-Místek;Moravskoslezský
73949;Frýdek-Místek;Moravskoslezský
73951;Frýdek-Místek;Moravskoslezský
73953;Frýdek-Místek;Moravskoslezský
73955;Frýdek-Místek;Moravskoslezský
73959;Frýdek-Místek;Moravskoslezský
73961;Frýdek-Místek;Moravskoslezský
73981;Frýdek-Místek;Moravskoslezský
73984;Frýdek-Místek;Moravskoslezský
73985;Frýdek-Místek;Moravskoslezský
73991;Frýdek-Místek;Moravskoslezský
73992;Frýdek-Místek;Moravskoslezský
73994;Frýdek-Místek;Moravskoslezský
73995;Frýdek-Místek;Moravskoslezský
73997;Frýdek-Místek;Moravskoslezský
73998;Frýdek-Místek;Moravskoslezský
74101;Nový Jičín;Moravskoslezský
74201;Nový Jičín;Moravskoslezský
74213;Nový Jičín;Moravskoslezský
74221;Nový Jičín;Moravskoslezský
74231;Nový Jičín;Moravskoslezský
74233;Nový Jičín;Moravskoslezský
74235;Nový Jičín;Moravskoslezský
74236;Nový Jičín;Moravskoslezský
74237;Nový Jičín;Moravskoslezský
74242;Nový Jičín;Moravskoslezský
74243;Nový Jičín;Moravskoslezský
74245;Nový Jičín;Moravskoslezský
74247;Nový Jičín;Moravskoslezský
74251;Nový Jičín;Moravskoslezský
74253;Nový Jičín;Moravskoslezský
74254;Nový Jičín;Moravskoslezský
74255;Nový Jičín;Moravskoslezský
74256;Nový Jičín;Moravskoslezský
74257;Nový Jičín;Moravskoslezský
74258;Nový Jičín;Moravskoslezský
74260;Nový Jičín;Moravskoslezský
74265;Nový Jičín;Moravskoslezský
74266;Nový Jičín;Moravskoslezský
74267;Nový Jičín;Moravskoslezský
74271;Nový Jičín;Moravskoslezský
74272;Nový Jičín;Moravskoslezský
74273;Nový Jičín;Moravskoslezský
74274;Nový Jičín;Moravskoslezský
74275;Nový Jičín;Moravskoslezský
74281;Nový Jičín;Moravskoslezský
74282;Nový Jičín;Moravskoslezský
74283;Ostrava-město;Moravskoslezský
74285;Ostrava-město;Moravskoslezský
74291;Nový Jičín;Moravskoslezský
74292;Nový Jičín;Moravskoslezský
74293;Nový Jičín;Moravskoslezský
74301;Opava;Moravskoslezský
74401;Nový Jičín;Moravskoslezský
74601;Opava;Moravskoslezský
74705;Opava;Moravskoslezský
74706;Opava;Moravskoslezský
74707;Opava;Moravskoslezský
74711;Opava;Moravskoslezský
74714;Opava;Moravskoslezský
74715;Opava;Moravskoslezský
74716;Opava;Moravskoslezský
74717;Opava;Moravskoslezský
74718;Opava;Moravskoslezský
74719;Opava;Moravskoslezský
74720;Opava;Moravskoslezský
74721;Opava;Moravskoslezský
74722;Opava;Moravskoslezský
74723;Opava;Moravskoslezský
74724;Opava;Moravskoslezský
74725;Opava;Moravskoslezský
74727;Opava;Moravskoslezský
74728;Opava;Moravskoslezský
74731;Opava;Moravskoslezský
74733;Opava;Moravskoslezský
74735;Opava;Moravskoslezský
74741;Opava;Moravskoslezský
74743;Opava;Moravskoslezský
74744;Opava;Moravskoslezský
74745;Opava;Moravskoslezský
74747;Opava;Moravskoslezský
74751;Opava;Moravskoslezský
74752;Opava;Moravskoslezský
74753;Opava;Moravskoslezský
74754;Opava;Moravskoslezský
74755;Opava;Moravskoslezský
74756;Opava;Moravskoslezský
74757;Opava;Moravskoslezský
74761;Opava;Moravskoslezský
74762;Opava;Moravskoslezský
74763;Opava;Moravskoslezský
74764;Opava;Moravskoslezský
74766;Ostrava-město;Moravskoslezský
74767;Opava;Moravskoslezský
74768;Opava;Moravskoslezský
74769;Opava;Moravskoslezský
74770;Opava;Moravskoslezský
74771;Opava;Moravskoslezský
74773;Opava;Moravskoslezský
74774;Opava;Moravskoslezský
74775;Opava;Moravskoslezský
74781;Opava;Moravskoslezský
74782;Opava;Moravskoslezský
74784;Opava;Moravskoslezský
74786;Opava;Moravskoslezský
74787;Opava;Moravskoslezský
74791;Opava;Moravskoslezský
74792;Opava;Moravskoslezský
74794;Opava;Moravskoslezský
74795;Opava;Moravskoslezský
74801;Opava;Moravskoslezský
74901;Opava;Moravskoslezský
75002;Přerov;Olomoucký
75101;Přerov;Olomoucký
75102;Přerov;Olomoucký
75103;Olomouc;Olomoucký
75104;Přerov;Olomoucký
75105;Přerov;Olomoucký
75111;Přerov;Olomoucký
75114;Přerov;Olomoucký
75115;Přerov;Olomoucký
75116;Přerov;Olomoucký
75117;Přerov;Olomoucký
75118;Přerov;Olomoucký
75119;Přerov;Olomoucký
75121;Přerov;Olomoucký
75122;Přerov;Olomoucký
75123;Přerov;Olomoucký
75124;Přerov;Olomoucký
75125;Přerov;Olomoucký
75127;Přerov;Olomoucký
75131;Olomouc;Olomoucký
75144;Přerov;Olomoucký
75201;Přerov;Olomoucký
75301;Přerov;Olomoucký
75352;Přerov;Olomoucký
75353;Přerov;Olomoucký
75354;Přerov;Olomoucký
75355;Přerov;Olomoucký
75356;Přerov;Olomoucký
75361;Přerov;Olomoucký
75362;Přerov;Olomoucký
75363;Přerov;Olomoucký
75364;Přerov;Olomoucký
75366;Přerov;Olomoucký
75367;Přerov;Olomoucký
75368;Přerov;Olomoucký
75501;Vsetín;Zlínský
75601;Vsetín;Zlínský
75602;Vsetín;Zlínský
75603;Vsetín;Zlínský
75604;Vsetín;Zlínský
75605;Vsetín;Zlínský
75606;Vsetín;Zlínský
75607;Vsetín;Zlínský
75611;Vsetín;Zlínský
75612;Vsetín;Zlínský
75614;Vsetín;Zlínský
75621;Vsetín;Zlínský
75622;Vsetín;Zlínský
75623;Vsetín;Zlínský
75624;Vsetín;Zlínský
75625;Vsetín;Zlínský
75627;Vsetín;Zlínský
75631;Vsetín;Zlínský
75641;Vsetín;Zlínský
75642;Vsetín;Zlínský
75643;Vsetín;Zlínský
75644;Vsetín;Zlínský
75645;Vsetín;Zlínský
75651;Vsetín;Zlínský
75652;Vsetín;Zlínský
75653;Vsetín;Zlínský
75654;Vsetín;Zlínský
75655;Vsetín;Zlínský
75656;Vsetín;Zlínský
75657;Vsetín;Zlínský
75661;Vsetín;Zlínský
75662;Vsetín;Zlínský
75663;Vsetín;Zlínský
75701;Vsetín;Zlínský
76001;Zlín;Zlínský
76005;Zlín;Zlínský
76301;Zlín;Zlínský
76302;Zlín;Zlínský
76307;Zlín;Zlínský
76310;Zlín;Zlínský
76311;Zlín;Zlínský
76312;Zlín;Zlínský
76313;Zlín;Zlínský
76314;Zlín;Zlínský
76315;Zlín;Zlínský
76316;Zlín;Zlínský
76317;Zlín;Zlínský
76318;Zlín;Zlínský
76319;Zlín;Zlínský
76321;Zlín;Zlínský
76323;Zlín;Zlínský
76324;Zlín;Zlínský
76325;Zlín;Zlínský
76326;Zlín;Zlínský
76331;Zlín;Zlínský
76332;Zlín;Zlínský
76333;Zlín;Zlínský
76334;Zlín;Zlínský
76341;Zlín;Zlínský
76345;Zlín;Zlínský
76351;Zlín;Zlínský
76361;Zlín;Zlínský
76362;Zlín;Zlínský
76363;Zlín;Zlínský
76364;Zlín;Zlínský
76502;Zlín;Zlínský
76601;Zlín;Zlínský
76701;Kroměříž;Zlínský
76801;Kroměříž;Zlínský
76802;Kroměříž;Zlínský
76803;Kroměříž;Zlínský
76804;Kroměříž;Zlínský
76805;Kroměříž;Zlínský
76811;Kroměříž;Zlínský
76812;Kroměříž;Zlínský
76813;Kroměříž;Zlínský
76821;Kroměříž;Zlínský
76823;Kroměříž;Zlínský
76824;Kroměříž;Zlínský
76831;Kroměříž;Zlínský
76832;Kroměříž;Zlínský
76833;Kroměříž;Zlínský
76834;Kroměříž;Zlínský
76841;Zlín;Zlínský
76842;Kroměříž;Zlínský
76843;Kroměříž;Zlínský
76852;Kroměříž;Zlínský
76861;Kroměříž;Zlínský
76871;Kroměříž;Zlínský
76872;Kroměříž;Zlínský
76875;Kroměříž;Zlínský
76901;Kroměříž;Zlínský
77900;Olomouc;Olomoucký
78301;Olomouc;Olomoucký
78305;Olomouc;Olomoucký
78306;Olomouc;Olomoucký
78307;Olomouc;Olomoucký
78313;Olomouc;Olomoucký
78314;Olomouc;Olomoucký
78316;Olomouc;Olomoucký
78321;Olomouc;Olomoucký
78322;Olomouc;Olomoucký
78324;Olomouc;Olomoucký
78325;Olomouc;Olomoucký
78332;Olomouc;Olomoucký
78333;Olomouc;Olomoucký
78335;Olomouc;Olomoucký
78336;Olomouc;Olomoucký
78342;Olomouc;Olomoucký
78344;Olomouc;Olomoucký
78345;Olomouc;Olomoucký
78346;Olomouc;Olomoucký
78347;Olomouc;Olomoucký
78349;Olomouc;Olomoucký
78353;Olomouc;Olomoucký
78354;Olomouc;Olomoucký
78355;Olomouc;Olomoucký
78356;Olomouc;Olomoucký
78357;Olomouc;Olomoucký
78361;Olomouc;Olomoucký
78365;Olomouc;Olomoucký
78372;Olomouc;Olomoucký
78373;Olomouc;Olomoucký
78375;Olomouc;Olomoucký
78383;Olomouc;Olomoucký
78385;Olomouc;Olomoucký
78386;Olomouc;Olomoucký
78391;Olomouc;Olomoucký
78396;Olomouc;Olomoucký
78397;Olomouc;Olomoucký
78401;Olomouc;Olomoucký
78501;Olomouc;Olomoucký
78701;Šumperk;Olomoucký
78801;Šumperk;Olomoucký
78803;Šumperk;Olomoucký
78804;Šumperk;Olomoucký
78805;Šumperk;Olomoucký
78811;Šumperk;Olomoucký
78813;Šumperk;Olomoucký
78814;Šumperk;Olomoucký
78815;Šumperk;Olomoucký
78816;Šumperk;Olomoucký
78820;Šumperk;Olomoucký
78821;Šumperk;Olomoucký
78823;Šumperk;Olomoucký
78825;Šumperk;Olomoucký
78832;Šumperk;Olomoucký
78833;Šumperk;Olomoucký
78901;Šumperk;Olomoucký
78961;Šumperk;Olomoucký
78962;Šumperk;Olomoucký
78963;Šumperk;Olomoucký
78964;Šumperk;Olomoucký
78969;Šumperk;Olomoucký
78971;Šumperk;Olomoucký
78972;Šumperk;Olomoucký
78973;Šumperk;Olomoucký
78974;Šumperk;Olomoucký
78975;Šumperk;Olomoucký
78982;Šumperk;Olomoucký
78983;Šumperk;Olomoucký
78985;Šumperk;Olomoucký
78991;Šumperk;Olomoucký
79001;Jeseník;Olomoucký
79051;Jeseník;Olomoucký
79052;Jeseník;Olomoucký
79053;Jeseník;Olomoucký
79054;Jeseník;Olomoucký
79055;Jeseník;Olomoucký
79057;Jeseník;Olomoucký
79058;Jeseník;Olomoucký
79061;Jeseník;Olomoucký
79063;Jeseník;Olomoucký
79064;Jeseník;Olomoucký
79065;Jeseník;Olomoucký
79069;Jeseník;Olomoucký
79070;Jeseník;Olomoucký
79081;Jeseník;Olomoucký
79082;Jeseník;Olomoucký
79084;Jeseník;Olomoucký
79201;Bruntál;Moravskoslezský
79302;Bruntál;Moravskoslezský
79303;Bruntál;Moravskoslezský
79305;Bruntál;Moravskoslezský
79312;Bruntál;Moravskoslezský
79315;Bruntál;Moravskoslezský
79316;Bruntál;Moravskoslezský
79323;Bruntál;Moravskoslezský
79324;Bruntál;Moravskoslezský
79326;Bruntál;Moravskoslezský
79331;Bruntál;Moravskoslezský
79336;Bruntál;Moravskoslezský
79342;Bruntál;Moravskoslezský
79344;Bruntál;Moravskoslezský
79351;Bruntál;Moravskoslezský
79356;Bruntál;Moravskoslezský
79368;Bruntál;Moravskoslezský
79371;Bruntál;Moravskoslezský
79374;Bruntál;Moravskoslezský
79376;Jeseník;Olomoucký
79382;Bruntál;Moravskoslezský
79383;Bruntál;Moravskoslezský
79384;Bruntál;Moravskoslezský
79391;Bruntál;Moravskoslezský
79393;Bruntál;Moravskoslezský
79395;Bruntál;Moravskoslezský
79397;Bruntál;Moravskoslezský
79399;Bruntál;Moravskoslezský
79401;Bruntál;Moravskoslezský
79501;Bruntál;Moravskoslezský
79601;Prostějov;Olomoucký
79603;Prostějov;Olomoucký
79604;Prostějov;Olomoucký
79607;Prostějov;Olomoucký
79802;Prostějov;Olomoucký
79803;Prostějov;Olomoucký
79804;Prostějov;Olomoucký
79805;Prostějov;Olomoucký
79806;Prostějov;Olomoucký
79807;Prostějov;Olomoucký
79808;Prostějov;Olomoucký
79809;Prostějov;Olomoucký
79811;Prostějov;Olomoucký
79812;Prostějov;Olomoucký
79813;Prostějov;Olomoucký
79814;Prostějov;Olomoucký
79816;Prostějov;Olomoucký
79817;Prostějov;Olomoucký
79821;Prostějov;Olomoucký
79823;Prostějov;Olomoucký
79824;Prostějov;Olomoucký
79825;Prostějov;Olomoucký
79826;Prostějov;Olomoucký
79827;Prostějov;Olomoucký
79828;Prostějov;Olomoucký
79829;Prostějov;Olomoucký
79830;Prostějov;Olomoucký
79841;Prostějov;Olomoucký
79842;Prostějov;Olomoucký
79843;Prostějov;Olomoucký
79844;Prostějov;Olomoucký
79845;Prostějov;Olomoucký
79846;Prostějov;Olomoucký
79847;Prostějov;Olomoucký
79848;Prostějov;Olomoucký
79849;Prostějov;Olomoucký
79851;Prostějov;Olomoucký
79852;Prostějov;Olomoucký
79853;Prostějov;Olomoucký
79854;Prostějov;Olomoucký
79855;Prostějov;Olomoucký
79856;Prostějov;Olomoucký
79857;Prostějov;Olomoucký
79858;Prostějov;Olomoucký
79861;Prostějov;Olomoucký
79862;Prostějov;Olomoucký
